Nation,State,County,Place,Latitude,Longitude,Elevation (meters)
United States of America,California,Alameda,Alameda,37.763971,-122.25681,0.837066352
United States of America,California,Alameda,Alameda,37.7644706,-122.2832729,
United States of America,California,Alameda,Albany,37.891575,-122.295923,17.52662086
United States of America,California,Alameda,Ashland,37.69463,-122.116433,12.43928719
United States of America,California,Alameda,Berkeley,37.868162,-122.3089629,
United States of America,California,Alameda,Berkeley,37.871775,-122.274603,49.00592804
United States of America,California,Alameda,Castro Valley,37.703796,-122.079384,60.62269211
United States of America,California,Alameda,Cherryland,37.679831,-122.102274,20.1223774
United States of America,California,Alameda,Dublin,37.714229,-121.912496,106.0405426
United States of America,California,Alameda,Emeryville,37.835926,-122.287253,6.074030399
United States of America,California,Alameda,Fairview,37.677664,-122.053088,111.6283493
United States of America,California,Alameda,Fremont,37.542943,-121.982786,15.44300079
United States of America,California,Alameda,Fremont,37.5365346,-122.0047359,
United States of America,California,Alameda,Hayward,37.6808244,-122.0879263,
United States of America,California,Alameda,Hayward,37.64545433,-122.010226,379.7868958
United States of America,California,Alameda,Livermore,37.685496,-121.764096,151.4400482
United States of America,California,Alameda,Livermore-Pleasanton,37.6193177,-121.7216797,
United States of America,California,Alameda,Newark,37.535586,-122.033629,7.128709316
United States of America,California,Alameda,Oakland,37.7717943,-122.2239551,
United States of America,California,Alameda,Oakland,37.798394,-122.1958395,101.5691986
United States of America,California,Alameda,Piedmont,37.821994,-122.231405,92.19165039
United States of America,California,Alameda,Pleasanton,37.67253,-121.882517,103.639328
United States of America,California,Alameda,San Leandro,37.716432,-122.174247,9.09249115
United States of America,California,Alameda,San Lorenzo,37.675181,-122.133752,7.709934235
United States of America,California,Alameda,Sunol,37.601062,-121.907967,249.412796
United States of America,California,Alameda,Union City,37.605592,-122.0347255,19.96749496
United States of America,California,Alpine,Alpine Village,38.777694,-119.820152,1695.824463
United States of America,California,Alpine,Bear Valley,38.466335,-120.045411,2202.38916
United States of America,California,Alpine,Kirkwood,38.688329,-120.05516,2597.133301
United States of America,California,Alpine,Markleeville,38.6176096,-119.7989986,
United States of America,California,Alpine,Markleeville,38.689148,-119.797184,1730.269165
United States of America,California,Alpine,Mesa Vista,38.793034,-119.806138,1706.603882
United States of America,California,Amador,Amador City,38.418092,-120.824342,287.9306335
United States of America,California,Amador,Buckhorn,38.453122,-120.535466,937
United States of America,California,Amador,Buena Vista,38.297445,-120.917948,120
United States of America,California,Amador,Camanche North Shore,38.244343,-120.953905,115
United States of America,California,Amador,Camanche Village,38.266189,-120.986608,74
United States of America,California,Amador,Drytown,38.438231,-120.85653,260
United States of America,California,Amador,Fiddletown,38.509115,-120.760507,550
United States of America,California,Amador,Ione,38.3474089,-120.9412746,
United States of America,California,Amador,Ione,38.354225,-120.937658,93.57863617
United States of America,California,Amador,Jackson,38.3296277,-120.7884337,
United States of America,California,Amador,Jackson,38.350688,-120.773762,380.3120117
United States of America,California,Amador,Kirkwood,38.688329,-120.05516,2597.133301
United States of America,California,Amador,Martell,38.361996,-120.804068,468
United States of America,California,Amador,Pine Grove,38.407385,-120.660607,600
United States of America,California,Amador,Pine Grove-Silver Lake,38.4997248,-120.3264559,
United States of America,California,Amador,Pioneer,38.435479,-120.584855,858
United States of America,California,Amador,Plymouth,38.479339,-120.847721,323.3050842
United States of America,California,Amador,Red Corral,38.411648,-120.605516,699
United States of America,California,Amador,River Pines,38.545422,-120.747468,575
United States of America,California,Amador,Sutter Creek,38.38507467,-120.8045817,452.3084106
United States of America,California,Amador,Sutter Creek-Plymouth,38.4734154,-120.7927963,
United States of America,California,Amador,Volcano,38.445571,-120.630534,798
United States of America,California,Butte,Bangor,39.376091,-121.411653,139
United States of America,California,Butte,Berry Creek,39.631358,-121.405226,412
United States of America,California,Butte,Biggs,39.41382,-121.710316,29.09767151
United States of America,California,Butte,Biggs,39.4540994,-121.7723641,
United States of America,California,Butte,Butte Creek Canyon,39.748871,-121.696862,234
United States of America,California,Butte,Butte Meadows,40.087156,-121.536948,1394
United States of America,California,Butte,Butte Valley,39.657088,-121.636333,297
United States of America,California,Butte,Cherokee,39.651391,-121.534483,346
United States of America,California,Butte,Chico,39.754213,-121.8088635,75.3813324
United States of America,California,Butte,Chico,39.7694918,-121.9293366,
United States of America,California,Butte,Clipper Mills,39.532423,-121.166551,1124
United States of America,California,Butte,Cohasset,39.902729,-121.744794,1156
United States of America,California,Butte,Concow,39.737113,-121.514461,626.7296753
United States of America,California,Butte,Durham,39.5969309,-121.8415821,
United States of America,California,Butte,Durham,39.671776,-121.8039285,54.6602478
United States of America,California,Butte,Feather Falls,39.6655389,-121.3519555,
United States of America,California,Butte,Forbestown,39.530038,-121.268946,429
United States of America,California,Butte,Forest Ranch,39.895186,-121.670475,695
United States of America,California,Butte,Gridley,39.362728,-121.698016,28.12833214
United States of America,California,Butte,Gridley,39.3392635,-121.7707851,
United States of America,California,Butte,Honcut,39.33259,-121.538753,30
United States of America,California,Butte,Kelly Ridge,39.528804,-121.466258,254
United States of America,California,Butte,Magalia,39.826009,-121.603408,721.319397
United States of America,California,Butte,Nord,39.773788,-121.954905,47
United States of America,California,Butte,Oroville,39.4825945,-121.558297,57.49797058
United States of America,California,Butte,Oroville,39.5431739,-121.5599876,
United States of America,California,Butte,Oroville East,39.496237,-121.502978,113.4183655
United States of America,California,Butte,Palermo,39.3923244,-121.5065211,
United States of America,California,Butte,Palermo,39.451744,-121.5371305,70.48412323
United States of America,California,Butte,Paradise,39.7539155,-121.587264,560.1170044
United States of America,California,Butte,Paradise,39.8812777,-121.6224936,
United States of America,California,Butte,Rackerby,39.426114,-121.354188,490
United States of America,California,Butte,Richvale,39.493738,-121.750769,31
United States of America,California,Butte,Robinson Mill,39.485626,-121.320163,726
United States of America,California,Butte,South Oroville,39.488694,-121.537943,97.62200928
United States of America,California,Butte,Stirling City,39.906349,-121.536144,1085
United States of America,California,Butte,Thermalito,39.498942,-121.600719,50.87805557
United States of America,California,Butte,Yankee Hill,39.700631,-121.514779,573
United States of America,California,Calaveras,Angels,38.070689,-120.550137,529
United States of America,California,Calaveras,Angels City,38.034483,-120.609384,
United States of America,California,Calaveras,Angels City,38.073523,-120.54915,484.9519653
United States of America,California,Calaveras,Arnold,38.252601,-120.347543,1294.832153
United States of America,California,Calaveras,Arnold-West Point,38.3675859,-120.3478283,
United States of America,California,Calaveras,Avery,38.195652,-120.366719,1022.679138
United States of America,California,Calaveras,Copperopolis,37.935144,-120.62746,212.2861481
United States of America,California,Calaveras,Dorrington,38.301509,-120.273381,1486.816406
United States of America,California,Calaveras,Forest Meadows,38.169797,-120.398058,1056.260376
United States of America,California,Calaveras,Mokelumne Hill,38.300404,-120.706343,448.6045837
United States of America,California,Calaveras,Mountain Ranch,38.263311,-120.5087585,730.8753662
United States of America,California,Calaveras,Murphys,38.146748,-120.4454435,721.1641846
United States of America,California,Calaveras,Rail Road Flat,38.324115,-120.50793,823.7288818
United States of America,California,Calaveras,Rancho Calaveras,38.124407,-120.859036,144.4308929
United States of America,California,Calaveras,San Andreas,38.195815,-120.678085,301.6578979
United States of America,California,Calaveras,San Andreas,38.1897296,-120.7113824,
United States of America,California,Calaveras,Vallecito,38.084228,-120.464431,542.2723389
United States of America,California,Calaveras,Valley Springs,38.171217,-120.829035,197.5876617
United States of America,California,Calaveras,Wallace,38.192911,-120.957759,97.97927094
United States of America,California,Calaveras,West Point,38.399135,-120.529572,843.9946289
United States of America,California,Colusa,Arbuckle,39.018435,-122.0593,41.96749878
United States of America,California,Colusa,Central Colusa,39.1321201,-122.118204,
United States of America,California,Colusa,College City,39.006303,-122.006828,11
United States of America,California,Colusa,Colusa,39.209354,-122.010436,17.24377632
United States of America,California,Colusa,East Colusa,39.1782264,-121.9763002,
United States of America,California,Colusa,Grimes,39.074154,-121.898776,12
United States of America,California,Colusa,Lodoga,39.304272,-122.505945,367
United States of America,California,Colusa,Maxwell,39.277078,-122.194676,26
United States of America,California,Colusa,Princeton,39.40285,-122.021224,24
United States of America,California,Colusa,Stonyford,39.370342,-122.544468,346
United States of America,California,Colusa,West Colusa,39.2134699,-122.4265129,
United States of America,California,Colusa,Williams,39.152772,-122.148842,26.05102158
United States of America,California,Contra Costa,Acalanes Ridge,37.904722,-122.078574,147
United States of America,California,Contra Costa,Alamo,37.858988,-122.032722,85.31008911
United States of America,California,Contra Costa,Alhambra Valley,37.968658,-122.136326,208
United States of America,California,Contra Costa,Antioch,37.975696,-121.794441,64.79142761
United States of America,California,Contra Costa,Antioch-Pittsburg,38.0093425,-121.8681271,
United States of America,California,Contra Costa,Bay Point,38.027688,-121.965697,30.838377
United States of America,California,Contra Costa,Bayview,38.005694,-122.320635,10
United States of America,California,Contra Costa,Bayview-Montalvin,38.000805,-122.325242,7.403813362
United States of America,California,Contra Costa,Bethel Island,38.022778,-121.629106,-0.389538348
United States of America,California,Contra Costa,Blackhawk,37.815979,-121.907142,217
United States of America,California,Contra Costa,Blackhawk-Camino Tassajara,37.821054,-121.923036,232.1649475
United States of America,California,Contra Costa,Brentwood,37.935311,-121.709536,23.7329998
United States of America,California,Contra Costa,Briones,37.9544588,-122.1903986,
United States of America,California,Contra Costa,Byron,37.871675,-121.639028,8.934370041
United States of America,California,Contra Costa,Camino Tassajara,37.790965,-121.884978,216
United States of America,California,Contra Costa,Castle Hill,37.872963,-122.057333,78
United States of America,California,Contra Costa,Central Contra Costa,37.9003583,-122.0375418,
United States of America,California,Contra Costa,Clayton,37.9326235,-121.9239055,152.9064636
United States of America,California,Contra Costa,Clyde,38.02672,-122.029545,8.367673874
United States of America,California,Contra Costa,Concord,37.9657485,-121.9771035,68.51200104
United States of America,California,Contra Costa,Crockett,38.05282,-122.2234,25.31459045
United States of America,California,Contra Costa,Danville,37.8041205,-121.9480005,151.7756805
United States of America,California,Contra Costa,Diablo,37.835451,-121.957588,174.0483398
United States of America,California,Contra Costa,Discovery Bay,37.906386,-121.606622,2.821625948
United States of America,California,Contra Costa,East Contra Costa,37.9449952,-121.6475434,
United States of America,California,Contra Costa,East Richmond Heights,37.944256,-122.314001,109.5068741
United States of America,California,Contra Costa,El Cerrito,37.917424,-122.305029,35.38410568
United States of America,California,Contra Costa,El Sobrante,37.968535,-122.295883,39.83203125
United States of America,California,Contra Costa,Hercules,38.003886,-122.2552825,68.19661713
United States of America,California,Contra Costa,Kensington,37.9056185,-122.2723865,229.007431
United States of America,California,Contra Costa,Knightsen,37.969189,-121.665538,8.732999802
United States of America,California,Contra Costa,Lafayette,37.891224,-122.111615,80.19737244
United States of America,California,Contra Costa,Martinez,37.9940985,-122.1293725,27.77305412
United States of America,California,Contra Costa,Montalvin Manor,37.997664,-122.329652,10
United States of America,California,Contra Costa,Moraga,37.843776,-122.1245,180.2841492
United States of America,California,Contra Costa,Moraga,37.843826,-122.123087,161
United States of America,California,Contra Costa,Mountain View,38.008821,-122.116424,22.21462822
United States of America,California,Contra Costa,Norris Canyon,37.746034,-121.988785,189
United States of America,California,Contra Costa,North Gate,37.906152,-121.998184,63
United States of America,California,Contra Costa,North Richmond,37.964584,-122.372808,4
United States of America,California,Contra Costa,Oakley,37.9959335,-121.734103,9.657806396
United States of America,California,Contra Costa,Orinda,37.89301,-122.1925165,138.0966187
United States of America,California,Contra Costa,Pacheco,37.986822,-122.068547,5.133242607
United States of America,California,Contra Costa,Pinole,37.997509,-122.292086,81.49092865
United States of America,California,Contra Costa,Pittsburg,38.014281,-121.9208295,42.12053299
United States of America,California,Contra Costa,Pleasant Hill,37.951672,-122.072324,14.68642426
United States of America,California,Contra Costa,Port Costa,38.045987,-122.185246,19.22484207
United States of America,California,Contra Costa,Reliez Valley,37.939919,-122.102696,91
United States of America,California,Contra Costa,Richmond,37.948702,-122.295088,164.7753143
United States of America,California,Contra Costa,Rodeo,38.031271,-122.262139,27.84004593
United States of America,California,Contra Costa,Rollingwood,37.965573,-122.331416,22.26200867
United States of America,California,Contra Costa,San Miguel,37.886699,-122.036831,66
United States of America,California,Contra Costa,San Pablo,37.961623,-122.345093,15.74200153
United States of America,California,Contra Costa,San Ramon,37.7739255,-121.9384225,194.5831146
United States of America,California,Contra Costa,Saranap,37.887815,-122.076126,103
United States of America,California,Contra Costa,Shell Ridge,37.905919,-122.034393,37
United States of America,California,Contra Costa,Tara Hills,37.994655,-122.318306,35.63492203
United States of America,California,Contra Costa,Tassajara,37.8493587,-121.8159372,
United States of America,California,Contra Costa,Vine Hill,38.009904,-122.086846,14.80171394
United States of America,California,Contra Costa,Waldon,37.928223,-122.054276,27.00253487
United States of America,California,Contra Costa,Walnut Creek,37.909956,-122.047373,49.46865845
United States of America,California,Contra Costa,West Contra Costa,37.9842114,-122.3217657,
United States of America,California,Del Norte,Bertsch-Oceanview,41.753811,-124.160784,9.783690453
United States of America,California,Del Norte,Crescent City,41.7893736,-124.2639255,
United States of America,California,Del Norte,Crescent City,41.754821,-124.201206,11.16114521
United States of America,California,Del Norte,Crescent City North,41.7627,-124.208602,17.59165764
United States of America,California,Del Norte,Gasquet,41.84289,-123.973096,189
United States of America,California,Del Norte,Hiouchi,41.793664,-124.066113,185
United States of America,California,Del Norte,Klamath,41.533075,-124.014866,225.1154938
United States of America,California,Del Norte,Klamath,41.5728126,-124.0350111,
United States of America,California,Del Norte,Smith River,41.924959,-124.149319,125
United States of America,California,Del Norte,Smith River-Gasquet,41.7356123,-123.9096887,
United States of America,California,El Dorado,Auburn Lake Trails,38.891636,-120.984949,253
United States of America,California,El Dorado,Cameron Park,38.676521,-120.989406,374.1908569
United States of America,California,El Dorado,Camino,38.741161,-120.681577,961
United States of America,California,El Dorado,Cold Springs,38.746784,-120.876113,487
United States of America,California,El Dorado,Coloma,38.802617,-120.894634,506
United States of America,California,El Dorado,Diamond Springs,38.685028,-120.823987,537.4555664
United States of America,California,El Dorado,El Dorado Hills,38.688223,-121.078461,222.0303345
United States of America,California,El Dorado,Georgetown,38.908317,-120.834453,818.6634521
United States of America,California,El Dorado,Grizzly Flats,38.635696,-120.535431,1137
United States of America,California,El Dorado,North El Dorado,38.854359,-120.5969954,
United States of America,California,El Dorado,Placerville,38.729267,-120.803,581.1014404
United States of America,California,El Dorado,Placerville,38.7429945,-120.7930617,
United States of America,California,El Dorado,Pollock Pines,38.756662,-120.5754845,1205.920288
United States of America,California,El Dorado,Shingle Springs,38.6730345,-120.9340905,476.7264709
United States of America,California,El Dorado,South El Dorado,38.6606906,-120.5677877,
United States of America,California,El Dorado,South Lake Tahoe,38.929237,-119.984347,1905.480347
United States of America,California,El Dorado,South Lake Tahoe,38.9085958,-120.0312387,
United States of America,California,El Dorado,Tahoma,39.063305,-120.143827,2074
United States of America,California,Fresno,Auberry,37.077754,-119.494591,645.7752686
United States of America,California,Fresno,Big Creek,37.203564,-119.248488,1916
United States of America,California,Fresno,Biola,36.802534,-120.019025,76.98157501
United States of America,California,Fresno,Bowles,36.604499,-119.752246,84.61347198
United States of America,California,Fresno,Calwa,36.71373,-119.761239,93
United States of America,California,Fresno,Calwa,36.680749,-119.733978,90.09249115
United States of America,California,Fresno,Cantua Creek,36.505318,-120.315835,88.90055084
United States of America,California,Fresno,Caruthers,36.540356,-119.836637,74.57049561
United States of America,California,Fresno,Caruthers-Raisin City,36.5710545,-119.9197382,
United States of America,California,Fresno,Centerville,36.736159,-119.495977,138
United States of America,California,Fresno,Clovis,36.819432,-119.694723,110.1935272
United States of America,California,Fresno,Coalinga,36.140734,-120.358301,203.9429932
United States of America,California,Fresno,Coalinga,36.204251,-120.4089333,
United States of America,California,Fresno,Del Rey,36.657195,-119.594672,104.4182663
United States of America,California,Fresno,Easton,36.651649,-119.789844,83.98641205
United States of America,California,Fresno,Firebaugh,36.872597,-120.6261104,
United States of America,California,Fresno,Firebaugh,36.856148,-120.453998,45.82394791
United States of America,California,Fresno,Fort Washington,36.879297,-119.761255,120
United States of America,California,Fresno,Fowler,36.6169745,-119.6651655,94.98934937
United States of America,California,Fresno,Fowler,36.6305597,-119.6959535,
United States of America,California,Fresno,Fresno,36.780489,-119.7622741,
United States of America,California,Fresno,Fresno,36.781549,-119.792113,94.94335175
United States of America,California,Fresno,Friant,36.984049,-119.715904,102.8670349
United States of America,California,Fresno,Huron,36.203054,-120.099743,112.1333466
United States of America,California,Fresno,Huron,36.2544604,-120.0934299,
United States of America,California,Fresno,Kerman,36.726082,-120.059416,67.21820831
United States of America,California,Fresno,Kerman,36.7238132,-120.0919777,
United States of America,California,Fresno,Kingsburg,36.5258535,-119.5650075,92.85771942
United States of America,California,Fresno,Kingsburg,36.540991,-119.5428388,
United States of America,California,Fresno,Lanare,36.442367,-119.927411,63.33375931
United States of America,California,Fresno,Laton,36.4550589,-119.7117317,
United States of America,California,Fresno,Laton,36.4349,-119.685835,78.5549469
United States of America,California,Fresno,Malaga,36.681601,-119.731785,95
United States of America,California,Fresno,Mayfair,36.76927,-119.761346,100
United States of America,California,Fresno,Mendota,36.626297,-120.5773805,
United States of America,California,Fresno,Mendota,36.756198,-120.382118,52.34906006
United States of America,California,Fresno,Minkler,36.727629,-119.458657,215
United States of America,California,Fresno,Monmouth,36.56562,-119.740475,86
United States of America,California,Fresno,Old Fig Garden,36.79885,-119.805152,104
United States of America,California,Fresno,Orange Cove,36.6175959,-119.3406813,
United States of America,California,Fresno,Orange Cove,36.624449,-119.313984,129.0684052
United States of America,California,Fresno,Parlier,36.609418,-119.536165,104.1354523
United States of America,California,Fresno,Parlier-Del Rey,36.6209767,-119.5350781,
United States of America,California,Fresno,Raisin City,36.602448,-119.905103,72.13406372
United States of America,California,Fresno,Reedley,36.600465,-119.4579595,106.2650833
United States of America,California,Fresno,Reedley,36.6581839,-119.4329754,
United States of America,California,Fresno,Riverdale,36.430799,-119.862121,67.89581299
United States of America,California,Fresno,Riverdale,36.4461627,-119.9069028,
United States of America,California,Fresno,San Joaquin,36.60706,-120.191365,52.63162994
United States of America,California,Fresno,San Joaquin-Tranquillity,36.5557643,-120.2392392,
United States of America,California,Fresno,Sanger,36.7621974,-119.5501021,
United States of America,California,Fresno,Sanger,36.70425,-119.558771,111.733551
United States of America,California,Fresno,Selma,36.541718,-119.6738128,
United States of America,California,Fresno,Selma,36.572699,-119.612752,94.45110321
United States of America,California,Fresno,Shaver Lake,37.101021,-119.316265,1694.579102
United States of America,California,Fresno,Sierra,37.095605,-119.0596968,
United States of America,California,Fresno,Squaw Valley,36.691806,-119.180019,436.2267456
United States of America,California,Fresno,Sunnyside,36.729434,-119.694571,104
United States of America,California,Fresno,Tarpey Village,36.793966,-119.701049,114
United States of America,California,Fresno,Three Rocks,36.505148,-120.393534,123
United States of America,California,Fresno,Tranquillity,36.648199,-120.251549,50.40334702
United States of America,California,Fresno,West Park,36.705527,-119.851548,85
United States of America,California,Glenn,Artois,39.63318,-122.189757,55
United States of America,California,Glenn,Elk Creek,39.600137,-122.537531,239
United States of America,California,Glenn,Hamilton City,39.742153,-122.012748,46.45155334
United States of America,California,Glenn,Orland,39.7011059,-122.4395749,
United States of America,California,Glenn,Orland,39.747758,-122.192169,77.56324768
United States of America,California,Glenn,Willows,39.519876,-122.198846,40.97708893
United States of America,California,Glenn,Willows,39.4931754,-122.3424492,
United States of America,California,Humboldt,Alderpoint,40.161343,-123.615738,128
United States of America,California,Humboldt,Arcata,40.890954,-124.0809145,11.61963177
United States of America,California,Humboldt,Arcata,40.735612,-123.8656711,
United States of America,California,Humboldt,Bayview,40.767795,-124.181276,25.89996338
United States of America,California,Humboldt,Benbow,40.060268,-123.765383,282
United States of America,California,Humboldt,Big Lagoon,41.159361,-124.129867,22
United States of America,California,Humboldt,Blue Lake,40.878694,-123.9914715,25.41799927
United States of America,California,Humboldt,Cutten,40.763351,-124.146775,61.7995224
United States of America,California,Humboldt,Eureka,40.800906,-124.159695,16.78075218
United States of America,California,Humboldt,Eureka,40.7093975,-124.099352,
United States of America,California,Humboldt,Ferndale,40.579066,-124.263219,13.7429142
United States of America,California,Humboldt,Ferndale,40.3872893,-124.3154046,
United States of America,California,Humboldt,Fieldbrook,40.972243,-124.025003,155
United States of America,California,Humboldt,Fields Landing,40.724833,-124.217634,1
United States of America,California,Humboldt,Fortuna,40.586742,-124.146101,18.84576607
United States of America,California,Humboldt,Fortuna,40.5293409,-123.8661253,
United States of America,California,Humboldt,Garberville,40.2108954,-123.8600004,
United States of America,California,Humboldt,Garberville,40.100421,-123.79489,393
United States of America,California,Humboldt,Humboldt Hill,40.732109,-124.203324,13.21320629
United States of America,California,Humboldt,Hydesville,40.548483,-124.088279,107.7914047
United States of America,California,Humboldt,Indianola,40.813247,-124.080831,27
United States of America,California,Humboldt,Loleta,40.640885,-124.222564,51
United States of America,California,Humboldt,Manila,40.851418,-124.163054,1
United States of America,California,Humboldt,McKinleyville,40.947392,-124.102547,41.83130264
United States of America,California,Humboldt,Miranda,40.228883,-123.817252,68
United States of America,California,Humboldt,Myers Flat,40.266564,-123.873666,104
United States of America,California,Humboldt,Myrtletown,40.790623,-124.130082,29.74577522
United States of America,California,Humboldt,North Coastal,41.0962596,-124.0036728,
United States of America,California,Humboldt,Orick,41.290917,-124.069139,223
United States of America,California,Humboldt,Phillipsville,40.211741,-123.784449,109
United States of America,California,Humboldt,Pine Hills,40.74175,-124.162222,61.69903183
United States of America,California,Humboldt,Redcrest,40.398774,-123.947416,192
United States of America,California,Humboldt,Redway,40.119444,-123.826411,151.8374329
United States of America,California,Humboldt,Rio Dell,40.498594,-124.105637,48.64405823
United States of America,California,Humboldt,Samoa,40.814609,-124.189214,8
United States of America,California,Humboldt,Scotia,40.477495,-124.10318,42
United States of America,California,Humboldt,Shelter Cove,40.038956,-124.055826,403
United States of America,California,Humboldt,Trinidad,41.061976,-124.141255,50.42752075
United States of America,California,Humboldt,Weott,40.322587,-123.920859,95
United States of America,California,Humboldt,Westhaven-Moonstone,41.039522,-124.11117,83.26625824
United States of America,California,Humboldt,Willow Creek,40.902406,-123.689521,720.1801147
United States of America,California,Humboldt,Willow Creek-Hoopa Valley,41.1483116,-123.6909175,
United States of America,California,Imperial,Bombay Beach,33.351726,-115.729073,-67.01565552
United States of America,California,Imperial,Brawley,32.977034,-115.536275,-32.59460068
United States of America,California,Imperial,Brawley,32.9827303,-115.4711527,
United States of America,California,Imperial,Calexico,32.678246,-115.497997,1.755832076
United States of America,California,Imperial,Calexico,32.6956968,-115.4952651,
United States of America,California,Imperial,Calipatria,33.1262,-115.51251,-54.24614716
United States of America,California,Imperial,Calipatria-Westmorland,33.1683043,-115.5764186,
United States of America,California,Imperial,Desert Shores,33.403148,-116.040706,-57.28001022
United States of America,California,Imperial,East Imperial,33.2019033,-115.1126532,
United States of America,California,Imperial,El Centro,32.7777185,-115.5991053,
United States of America,California,Imperial,El Centro,32.788139,-115.557966,-11.76295185
United States of America,California,Imperial,Heber,32.729039,-115.5223985,-2.001078606
United States of America,California,Imperial,Holtville,32.811885,-115.379512,-2.248252869
United States of America,California,Imperial,Holtville,32.8220033,-115.3586781,
United States of America,California,Imperial,Imperial,32.8655904,-115.557135,
United States of America,California,Imperial,Imperial,32.8359245,-115.574023,-16.32814407
United States of America,California,Imperial,Niland,33.238576,-115.513927,-41.46826172
United States of America,California,Imperial,Ocotillo,32.739308,-115.996683,121.1031647
United States of America,California,Imperial,Palo Verde,33.429419,-114.730094,70.80099487
United States of America,California,Imperial,Salton City,33.298601,-115.959575,-34.97371674
United States of America,California,Imperial,Salton Sea Beach,33.375007,-116.012506,-63.17154694
United States of America,California,Imperial,Seeley,32.792046,-115.68943,-10.85754013
United States of America,California,Imperial,West Imperial,33.0171389,-115.8499737,
United States of America,California,Imperial,Westmorland,33.037923,-115.622292,-49.60857773
United States of America,California,Imperial,Winterhaven,32.740055,-114.634696,39.96199799
United States of America,California,Imperial,Winterhaven-Bard,32.7799835,-114.5840716,
United States of America,California,Inyo,Big Pine,37.165377,-118.296321,1226.929199
United States of America,California,Inyo,Bishop,37.3323125,-118.4080146,
United States of America,California,Inyo,Bishop,37.365087,-118.394896,1264.359375
United States of America,California,Inyo,Cartago,36.319707,-118.025721,1103.093262
United States of America,California,Inyo,Darwin,36.268417,-117.59197,1461.759521
United States of America,California,Inyo,Death Valley,36.2706836,-116.8134914,
United States of America,California,Inyo,Dixon Lane-Meadow Creek,37.383237,-118.417027,1276.114136
United States of America,California,Inyo,Furnace Creek,36.451434,-116.858843,-20.8230629
United States of America,California,Inyo,Homewood Canyon,35.89004,-117.386417,1516
United States of America,California,Inyo,Homewood Canyon-Valley Wells,35.844162,-117.33985,577.4468384
United States of America,California,Inyo,Independence,36.80577,-118.202307,1194.03479
United States of America,California,Inyo,Independence,36.9449466,-117.9007638,
United States of America,California,Inyo,Keeler,36.487943,-117.872623,1101.327026
United States of America,California,Inyo,Lone Pine,36.586402,-118.070668,1155.139526
United States of America,California,Inyo,Lone Pine,36.1532572,-117.7580314,
United States of America,California,Inyo,Mesa,37.421647,-118.544166,1407.992065
United States of America,California,Inyo,Olancha,36.262509,-117.998944,1135.375244
United States of America,California,Inyo,Pearsonville,35.814477,-117.873781,773.2005615
United States of America,California,Inyo,Round Valley,37.414643,-118.59783,1473.765137
United States of America,California,Inyo,Shoshone,35.965923,-116.269652,473.2018433
United States of America,California,Inyo,Tecopa,35.84373,-116.211831,437.4079895
United States of America,California,Inyo,Trona,35.814987,-117.344893,696
United States of America,California,Inyo,Valley Wells,35.876128,-117.336566,964
United States of America,California,Inyo,West Bishop,37.361516,-118.44769,1331.919922
United States of America,California,Inyo,Wilkerson,37.274542,-118.385697,1332.395874
United States of America,California,Kern,Arvin,35.196044,-118.821438,129.7779999
United States of America,California,Kern,Arvin-Lamont,35.1978463,-118.8916321,
United States of America,California,Kern,Bakersfield,35.4127761,-118.9619622,
United States of America,California,Kern,Bakersfield,35.3186234,-119.089797,112.0183487
United States of America,California,Kern,Bear Valley Springs,35.169783,-118.644987,1277.004395
United States of America,California,Kern,Bodfish,35.589246,-118.481859,821.0908203
United States of America,California,Kern,Boron,35.015177,-117.660799,792.8487549
United States of America,California,Kern,Buttonwillow,35.3940158,-119.4164905,
United States of America,California,Kern,Buttonwillow,35.40906,-119.44291,90.41728973
United States of America,California,Kern,California City,35.161119,-117.873033,765.4986572
United States of America,California,Kern,Cherokee Strip,35.469566,-119.261525,103
United States of America,California,Kern,China Lake Acres,35.643513,-117.764261,738.7627563
United States of America,California,Kern,Delano,35.769649,-119.24632,96.20205688
United States of America,California,Kern,Delano-McFarland,35.6854889,-119.200331,
United States of America,California,Kern,Derby Acres,35.247512,-119.596825,422.838501
United States of America,California,Kern,Dustin Acres,35.215207,-119.381181,107.7765732
United States of America,California,Kern,East Kern,35.2072518,-117.9080045,
United States of America,California,Kern,Edmundson Acres,35.227295,-118.823251,149
United States of America,California,Kern,Edwards AFB,34.921701,-117.933043,719.3234863
United States of America,California,Kern,Fellows,35.177082,-119.546007,416.4692383
United States of America,California,Kern,Ford City,35.15675,-119.458148,273.0079956
United States of America,California,Kern,Frazier Park,34.822242,-118.948251,1426.862305
United States of America,California,Kern,Fuller Acres,35.302253,-118.914295,129
United States of America,California,Kern,Golden Hills,35.14568,-118.494549,1160.221802
United States of America,California,Kern,Greenacres,35.38322,-119.118249,120
United States of America,California,Kern,Greenfield,35.269109,-119.010249,108
United States of America,California,Kern,Greenfield-Panama,35.2305045,-119.1191249,
United States of America,California,Kern,Inyokern,35.64743,-117.813795,741.6188965
United States of America,California,Kern,Johannesburg,35.369564,-117.638983,1097.639526
United States of America,California,Kern,Keene,35.23909,-118.58251,772.2790527
United States of America,California,Kern,Kernville,35.745502,-118.427367,875.9485474
United States of America,California,Kern,Lake Isabella,35.5948852,-118.4762284,
United States of America,California,Kern,Lake Isabella,35.6324,-118.476259,812.3560791
United States of America,California,Kern,Lake of the Woods,34.81833,-119.000164,1572.03064
United States of America,California,Kern,Lamont,35.261102,-118.91332,123.312088
United States of America,California,Kern,Lebec,34.8494435,-118.8796565,1087.061523
United States of America,California,Kern,Lost Hills,35.614199,-119.689247,89.99448395
United States of America,California,Kern,Maricopa,35.058276,-119.401164,269.8320007
United States of America,California,Kern,McFarland,35.678428,-119.230236,107.4982986
United States of America,California,Kern,McKittrick,35.302498,-119.628039,336.99646
United States of America,California,Kern,Mettler,35.062659,-118.971781,164.7700043
United States of America,California,Kern,Mexican Colony,35.468929,-119.268712,102
United States of America,California,Kern,Mojave,35.0355315,-118.214748,882.5032959
United States of America,California,Kern,Mountain Mesa,35.638036,-118.405381,809.185791
United States of America,California,Kern,North Edwards,35.050448,-117.808832,721.9716187
United States of America,California,Kern,Oildale,35.419957,-119.028867,144.319397
United States of America,California,Kern,Onyx,35.687683,-118.217511,865.0183716
United States of America,California,Kern,Pine Mountain Club,34.849331,-119.158141,1656.576172
United States of America,California,Kern,Randsburg,35.367588,-117.654189,1083.716064
United States of America,California,Kern,Ridgecrest,35.620932,-117.675749,701.8398438
United States of America,California,Kern,Rosamond,34.865786,-118.206856,729.2185669
United States of America,California,Kern,Rosedale,35.3705545,-119.1964995,105.9486389
United States of America,California,Kern,Rosedale,35.3963961,-119.1767206,
United States of America,California,Kern,Shafter,35.495893,-119.247908,109.3069077
United States of America,California,Kern,Shafter,35.4949197,-119.2647247,
United States of America,California,Kern,Smith Corner,35.478831,-119.277122,104
United States of America,California,Kern,South Taft,35.132373,-119.457959,325.6946716
United States of America,California,Kern,Squirrel Mountain Valley,35.623606,-118.408211,878.7332153
United States of America,California,Kern,Stallion Springs,35.078784,-118.63587,1153.383423
United States of America,California,Kern,Taft,35.126267,-119.442116,320.5270081
United States of America,California,Kern,Taft Heights,35.134597,-119.470131,352.0223083
United States of America,California,Kern,Tehachapi,35.128558,-118.448899,1216.806641
United States of America,California,Kern,Tehachapi,35.1188191,-118.517561,
United States of America,California,Kern,Tupman,35.298609,-119.351396,98.20697784
United States of America,California,Kern,Valley Acres,35.209031,-119.410318,130.7920074
United States of America,California,Kern,Wasco,35.593589,-119.343162,99.56040192
United States of America,California,Kern,Wasco,35.6450736,-119.7489717,
United States of America,California,Kern,Weedpatch,35.241084,-118.915204,118.1026688
United States of America,California,Kern,Weldon,35.64183,-118.333721,876.052002
United States of America,California,Kern,West Kern,35.1245784,-119.3685308,
United States of America,California,Kern,Wofford Heights,35.709182,-118.463835,868.7306519
United States of America,California,Kings,Armona,36.312673,-119.708239,72.47686768
United States of America,California,Kings,Avenal,36.049899,-120.099223,309.9917908
United States of America,California,Kings,Avenal,35.9048358,-120.0793193,
United States of America,California,Kings,Corcoran,36.078824,-119.555551,61.80874252
United States of America,California,Kings,Corcoran,36.1015842,-119.5721903,
United States of America,California,Kings,Grangeville,36.343897,-119.707466,75
United States of America,California,Kings,Hanford,36.333273,-119.646889,76.4393158
United States of America,California,Kings,Hanford,36.2485451,-119.6345299,
United States of America,California,Kings,Hanford Northeast,36.3928943,-119.5983712,
United States of America,California,Kings,Hardwick,36.402595,-119.72077,76
United States of America,California,Kings,Home Garden,36.303291,-119.63471,75.2201004
United States of America,California,Kings,Kettleman City,36.00865,-119.962885,76.91178131
United States of America,California,Kings,Lemoore,36.303874,-119.786449,69.44083405
United States of America,California,Kings,Lemoore,36.3236707,-119.8575931,
United States of America,California,Kings,Lemoore Station,36.260534,-119.891936,67.62601471
United States of America,California,Kings,Stratford,36.01376,-119.7891118,
United States of America,California,Kings,Stratford,36.190007,-119.823647,61.83374405
United States of America,California,Lake,Clearlake,38.952773,-122.63112,429.2775269
United States of America,California,Lake,Clearlake,38.9777763,-122.5579721,
United States of America,California,Lake,Clearlake Oaks,39.019862,-122.658176,406.104248
United States of America,California,Lake,Clearlake Riviera,38.9589037,-122.7459162,
United States of America,California,Lake,Clearlake Riviera,38.951195,-122.720676,831
United States of America,California,Lake,Cobb,38.835146,-122.722348,897.0316772
United States of America,California,Lake,Cobb,38.8709539,-122.7736029,
United States of America,California,Lake,Hidden Valley Lake,38.802968,-122.555113,330.7924805
United States of America,California,Lake,Kelseyville,38.972457,-122.831409,428.3527222
United States of America,California,Lake,Kelseyville,38.9890591,-122.8861893,
United States of America,California,Lake,Lakeport,39.0444878,-122.9563502,
United States of America,California,Lake,Lakeport,39.044865,-122.918383,413.6198425
United States of America,California,Lake,Lower Lake,38.8608718,-122.4595449,
United States of America,California,Lake,Lower Lake,38.909441,-122.608618,424.229187
United States of America,California,Lake,Lucerne,39.08779,-122.791108,409.189209
United States of America,California,Lake,Lucerne-Clearlake Oaks,39.1340251,-122.6684556,
United States of America,California,Lake,Middletown,38.7527742,-122.5571962,
United States of America,California,Lake,Middletown,38.752735,-122.616959,336.6870117
United States of America,California,Lake,Nice,39.126774,-122.850256,450.2583923
United States of America,California,Lake,North Lakeport,39.085461,-122.909345,510.4405823
United States of America,California,Lake,Soda Bay,39.002431,-122.779475,554
United States of America,California,Lake,Spring Valley,39.077676,-122.596764,632
United States of America,California,Lake,Upper Lake,39.155873,-122.905181,406.0428772
United States of America,California,Lake,Upper Lake-Nice,39.3331714,-122.898708,
United States of America,California,Lassen,Bieber,41.125133,-121.133602,1259
United States of America,California,Lassen,Big Valley,40.9102718,-121.1067052,
United States of America,California,Lassen,Clear Creek,40.302283,-121.053127,1539
United States of America,California,Lassen,Doyle,40.027485,-120.117287,1285
United States of America,California,Lassen,Herlong,40.141883,-120.139775,1232
United States of America,California,Lassen,Honey Lake,40.1324038,-120.152514,
United States of America,California,Lassen,Janesville,40.280909,-120.533545,1301
United States of America,California,Lassen,Johnstonville,40.378927,-120.584631,1263
United States of America,California,Lassen,Litchfield,40.387724,-120.380985,1484
United States of America,California,Lassen,Madeline Plains,40.8457377,-120.3222189,
United States of America,California,Lassen,Milford,40.163325,-120.368611,1234
United States of America,California,Lassen,Nubieber,41.096649,-121.181566,1255
United States of America,California,Lassen,Patton Village,40.140133,-120.177784,1228
United States of America,California,Lassen,Spaulding,40.655664,-120.786259,1577
United States of America,California,Lassen,Susanville,40.4032247,-120.5515526,
United States of America,California,Lassen,Susanville,40.417092,-120.646014,1276.265015
United States of America,California,Lassen,Westwood,40.305038,-121.003396,1557.506104
United States of America,California,Lassen,Westwood,40.5011553,-120.9674678,
United States of America,California,Los Angeles,Acton,34.472777,-118.183696,846.0354004
United States of America,California,Los Angeles,Agoura Hills,34.153365,-118.761805,282.4083557
United States of America,California,Los Angeles,Agoura Hills-Malibu,34.1533395,-118.7616764,
United States of America,California,Los Angeles,Agua Dulce,34.504433,-118.316024,1268
United States of America,California,Los Angeles,Alhambra,34.081859,-118.135052,137.256546
United States of America,California,Los Angeles,Alondra Park,33.890915,-118.334297,16.59879303
United States of America,California,Los Angeles,Altadena,34.188605,-118.134795,396.3233948
United States of America,California,Los Angeles,Arcadia,34.1318805,-118.0524685,149.9029694
United States of America,California,Los Angeles,Artesia,33.867215,-118.080622,16.2679882
United States of America,California,Los Angeles,Avalon,33.340941,-118.327821,7.060432434
United States of America,California,Los Angeles,Avocado Heights,34.03861,-118.004575,103.9363708
United States of America,California,Los Angeles,Azusa,34.130657,-117.906869,181.1357727
United States of America,California,Los Angeles,Baldwin Park,34.082809,-117.971677,107.7261124
United States of America,California,Los Angeles,Bell,33.978414,-118.182908,43.10371399
United States of America,California,Los Angeles,Bell Gardens,33.968181,-118.156039,37.61724854
United States of America,California,Los Angeles,Bellflower,33.888165,-118.127604,23.59479141
United States of America,California,Los Angeles,Beverly Hills,34.073109,-118.39946,77.42546844
United States of America,California,Los Angeles,Bradbury,34.149306,-117.974319,218.3731079
United States of America,California,Los Angeles,Burbank,34.166983,-118.326271,166.6317749
United States of America,California,Los Angeles,Calabasas,34.138363,-118.660917,374.6552734
United States of America,California,Los Angeles,Carson,33.8323005,-118.241574,7.47768116
United States of America,California,Los Angeles,Castaic,34.48178,-118.631647,581
United States of America,California,Los Angeles,Cerritos,33.877421,-118.051986,18.70941925
United States of America,California,Los Angeles,Charter Oak,34.101308,-117.857656,215.6853638
United States of America,California,Los Angeles,Citrus,34.114891,-117.891786,178.2752686
United States of America,California,Los Angeles,Claremont,34.110009,-117.719734,392.9340515
United States of America,California,Los Angeles,Commerce,33.9993215,-118.141764,48.01747131
United States of America,California,Los Angeles,Compton,33.885762,-118.21675,19.63382912
United States of America,California,Los Angeles,Covina,34.091609,-117.879193,182.0978699
United States of America,California,Los Angeles,Cudahy,33.964214,-118.182575,39.14126587
United States of America,California,Los Angeles,Culver City,34.007761,-118.400905,19.0700016
United States of America,California,Los Angeles,Del Aire,33.916138,-118.369282,30.31572151
United States of America,California,Los Angeles,Desert View Highlands,34.589738,-118.153512,829.8937378
United States of America,California,Los Angeles,Diamond Bar,34.001652,-117.820761,263.1564941
United States of America,California,Los Angeles,Downey,33.945394,-118.144279,35.78842545
United States of America,California,Los Angeles,Duarte,34.1663675,-117.9570935,664.1152954
United States of America,California,Los Angeles,East Compton,33.897748,-118.194093,21.46265221
United States of America,California,Los Angeles,East La Mirada,33.924403,-117.988975,68.12989044
United States of America,California,Los Angeles,East Los Angeles,34.0291595,-118.1561585,67.375
United States of America,California,Los Angeles,East Pasadena,34.140057,-118.07765,196.1304932
United States of America,California,Los Angeles,East Rancho Dominguez,33.894834,-118.195587,26
United States of America,California,Los Angeles,East San Gabriel,34.118374,-118.079838,150.7204895
United States of America,California,Los Angeles,East San Gabriel Valley,34.12142,-118.0798956,
United States of America,California,Los Angeles,El Monte,34.073529,-118.0314307,87.22888947
United States of America,California,Los Angeles,El Segundo,33.921313,-118.406233,46.89915466
United States of America,California,Los Angeles,Elizabeth Lake,34.658992,-118.378393,1179
United States of America,California,Los Angeles,Florence-Graham,33.979364,-118.244224,49.5045929
United States of America,California,Los Angeles,Gardena,33.8898935,-118.311771,15.37957764
United States of America,California,Los Angeles,Glendale,34.16691067,-118.2257137,291.9022522
United States of America,California,Los Angeles,Glendora,34.150282,-117.838351,315.0421448
United States of America,California,Los Angeles,Green Valley,34.617221,-118.405896,1329
United States of America,California,Los Angeles,Hacienda Heights,34.000578,-117.969434,118.2444839
United States of America,California,Los Angeles,Hasley Canyon,34.481776,-118.666579,662
United States of America,California,Los Angeles,Hawaiian Gardens,33.828565,-118.073646,8.647895813
United States of America,California,Los Angeles,Hawthorne,33.917214,-118.348607,20.2564373
United States of America,California,Los Angeles,Hermosa Beach,33.866314,-118.399681,21.03548431
United States of America,California,Los Angeles,Hidden Hills,34.167557,-118.660918,307.5308228
United States of America,California,Los Angeles,Huntington Park,33.985814,-118.227956,54.07664871
United States of America,California,Los Angeles,Industry,34.03121267,-118.0024203,85.00683594
United States of America,California,Los Angeles,Inglewood,33.9696905,-118.3602115,32.417099
United States of America,California,Los Angeles,Irwindale,34.112481,-117.96439,135.1193695
United States of America,California,Los Angeles,La Canada Flintridge,34.206858,-118.2092,420.1808777
United States of America,California,Los Angeles,La Crescenta-Montrose,34.227911,-118.231996,547.5866089
United States of America,California,Los Angeles,La Habra Heights,33.96412,-117.94609,268.4663086
United States of America,California,Los Angeles,La Mirada,33.90213,-118.009663,43.72080231
United States of America,California,Los Angeles,La Puente,34.03241,-117.955195,98.71427155
United States of America,California,Los Angeles,La Verne,34.1328345,-117.763452,434.7906799
United States of America,California,Los Angeles,Ladera Heights,33.988762,-118.374146,63.60251617
United States of America,California,Los Angeles,Lake Hughes,34.683252,-118.458904,1365
United States of America,California,Los Angeles,Lake Los Angeles,34.617665,-117.833678,805.149353
United States of America,California,Los Angeles,Lakewood,33.8528735,-118.1129125,15.96318531
United States of America,California,Los Angeles,Lancaster,34.6665615,-118.1740535,738.5776978
United States of America,California,Los Angeles,Lawndale,33.886764,-118.353556,17.51320457
United States of America,California,Los Angeles,Lennox,33.939813,-118.357482,23.30447388
United States of America,California,Los Angeles,Leona Valley,34.614652,-118.298931,1310
United States of America,California,Los Angeles,Littlerock,34.525056,-117.990048,876.0609741
United States of America,California,Los Angeles,Lomita,33.785329,-118.3122565,44.58677292
United States of America,California,Los Angeles,Long Beach,33.8184865,-118.18548,28.20433235
United States of America,California,Los Angeles,Long Beach-Lakewood,33.7857737,-118.162199,
United States of America,California,Los Angeles,Los Angeles,34.07571177,-118.3135033,78.59146881
United States of America,California,Los Angeles,Los Angeles,33.9958488,-118.3598178,
United States of America,California,Los Angeles,Lynwood,33.924642,-118.201862,26.33951187
United States of America,California,Los Angeles,Malibu,34.03045,-118.778612,88.9140625
United States of America,California,Los Angeles,Manhattan Beach,33.88898,-118.405357,49.56341553
United States of America,California,Los Angeles,Marina del Rey,33.979361,-118.452912,3.015313625
United States of America,California,Los Angeles,Mayflower Village,34.117837,-118.009486,114.5068741
United States of America,California,Los Angeles,Maywood,33.987864,-118.186553,46.45655441
United States of America,California,Los Angeles,Monrovia,34.163936,-117.9984095,262.4250488
United States of America,California,Los Angeles,Montebello,34.004213,-118.1164313,58.86478424
United States of America,California,Los Angeles,Monterey Park,34.044711,-118.140915,105.5480042
United States of America,California,Los Angeles,Newhall,34.373361,-118.5400404,
United States of America,California,Los Angeles,North Antelope Valley,34.7263065,-118.1775114,
United States of America,California,Los Angeles,North El Monte,34.102958,-118.023319,101.5020065
United States of America,California,Los Angeles,Norwalk,33.906914,-118.083398,28.37603951
United States of America,California,Los Angeles,Palmdale,34.613472,-118.0781375,772.6640015
United States of America,California,Los Angeles,Palos Verdes,33.7444613,-118.3870173,
United States of America,California,Los Angeles,Palos Verdes Estates,33.787049,-118.396657,276.8460388
United States of America,California,Los Angeles,Paramount,33.89264333,-118.1804817,21.46265221
United States of America,California,Los Angeles,Pasadena,34.1766095,-118.1726138,280.5734253
United States of America,California,Los Angeles,Pasadena,34.1712391,-118.1498992,
United States of America,California,Los Angeles,Pico Rivera,34.001729,-118.085008,53.8438797
United States of America,California,Los Angeles,Pomona,34.06076,-117.755886,263.9584351
United States of America,California,Los Angeles,Quartz Hill,34.64838,-118.219748,757.1018677
United States of America,California,Los Angeles,Rancho Palos Verdes,33.758216,-118.364256,376.8618469
United States of America,California,Los Angeles,Redondo Beach,33.8370835,-118.381098,34.79731369
United States of America,California,Los Angeles,Rolling Hills,33.75935,-118.34155,294.9653931
United States of America,California,Los Angeles,Rolling Hills Estates,33.773738,-118.360788,249.8611908
United States of America,California,Los Angeles,Rose Hills,34.009059,-118.041859,200
United States of America,California,Los Angeles,Rosemead,34.067887,-118.0752255,80.67005157
United States of America,California,Los Angeles,Rowland Heights,33.980962,-117.889791,158.371994
United States of America,California,Los Angeles,San Dimas,34.129297,-117.8036575,392.8940735
United States of America,California,Los Angeles,San Fernando,34.287251,-118.438836,332.3249817
United States of America,California,Los Angeles,San Fernando Valley,34.2495663,-118.4179218,
United States of America,California,Los Angeles,San Gabriel,34.1044595,-118.098555,138.8186798
United States of America,California,Los Angeles,San Marino,34.1182305,-118.1063215,165.5039215
United States of America,California,Los Angeles,San Pasqual,34.139218,-118.102516,235
United States of America,California,Los Angeles,Santa Clarita,34.418266,-118.463941,446.3166504
United States of America,California,Los Angeles,Santa Fe Springs,33.9357785,-118.0749755,40.35048294
United States of America,California,Los Angeles,Santa Monica,34.0122714,-118.4998283,
United States of America,California,Los Angeles,Santa Monica,34.022059,-118.481336,35.50432205
United States of America,California,Los Angeles,Sierra Madre,34.164806,-118.050907,266.7062988
United States of America,California,Los Angeles,Signal Hill,33.801817,-118.1705,54.00247574
United States of America,California,Los Angeles,Antelope Valley,34.7513712,-118.2522977,
United States of America,California,Los Angeles,South Bay Cities,33.8696728,-118.4052294,
United States of America,California,Los Angeles,South El Monte,34.04891,-118.048463,74.102005
United States of America,California,Los Angeles,South Gate,33.944264,-118.194903,32.74039078
United States of America,California,Los Angeles,South Monrovia Island,34.123434,-117.995859,132
United States of America,California,Los Angeles,South Pasadena,34.112958,-118.155778,198.7946625
United States of America,California,Los Angeles,South San Gabriel,34.04906,-118.09515,110.1705017
United States of America,California,Los Angeles,South San Jose Hills,34.011261,-117.904846,126.0143204
United States of America,California,Los Angeles,South Whittier,33.934724,-118.0308,50.09990692
United States of America,California,Los Angeles,Stevenson Ranch,34.38939,-118.588498,612
United States of America,California,Los Angeles,Sun Village,34.559622,-117.955584,885
United States of America,California,Los Angeles,Temple City,34.104733,-118.068648,123.7744522
United States of America,California,Los Angeles,Topanga,34.096428,-118.605277,712
United States of America,California,Los Angeles,Torrance,33.8304529,-118.3566183,
United States of America,California,Los Angeles,Torrance,33.84139567,-118.345634,27.84986115
United States of America,California,Los Angeles,Upper San Gabriel Valley,34.1146801,-118.0270005,
United States of America,California,Los Angeles,Val Verde,34.445211,-118.65724,363.0130615
United States of America,California,Los Angeles,Valinda,34.03776,-117.928939,117.5430145
United States of America,California,Los Angeles,Vernon,34.0083115,-118.2143495,56.45057297
United States of America,California,Los Angeles,View Park-Windsor Hills,33.993662,-118.34695,90.61612701
United States of America,California,Los Angeles,Vincent,34.098555,-117.924395,139.7304993
United States of America,California,Los Angeles,Walnut,34.027738,-117.860514,204.6855316
United States of America,California,Los Angeles,Walnut Park,33.968781,-118.22379,45.23734283
United States of America,California,Los Angeles,West Athens,33.922414,-118.301156,55.30886459
United States of America,California,Los Angeles,West Carson,33.826266,-118.292534,12.64234447
United States of America,California,Los Angeles,West Compton,33.894116,-118.266304,26.07762527
United States of America,California,Los Angeles,West Covina,34.05666,-117.918617,126.3191147
United States of America,California,Los Angeles,West Hollywood,34.087909,-118.37216,67.54473114
United States of America,California,Los Angeles,West Puente Valley,34.050838,-117.969783,97.93902588
United States of America,California,Los Angeles,West Rancho Dominguez,33.894508,-118.269728,38
United States of America,California,Los Angeles,West Whittier-Los Nietos,33.976113,-118.069,48.88498688
United States of America,California,Los Angeles,Westlake Village,34.141973,-118.819514,273.34729
United States of America,California,Los Angeles,Westmont,33.941514,-118.302306,65.83060455
United States of America,California,Los Angeles,Whittier,33.99577,-118.040073,211.2656708
United States of America,California,Los Angeles,Willowbrook,33.917515,-118.252705,26.96064949
United States of America,California,Madera,Ahwahnee,37.365227,-119.719301,970
United States of America,California,Madera,Bass Lake,37.328173,-119.566721,1208
United States of America,California,Madera,Bonadelle Ranchos-Madera Ranchos,36.9287765,-119.8852775,104.054451
United States of America,California,Madera,Chowchilla,37.0820179,-120.2474974,
United States of America,California,Madera,Chowchilla,37.117921,-120.261692,71.96555328
United States of America,California,Madera,Coarsegold,37.252636,-119.699954,971
United States of America,California,Madera,Fairmead,37.078388,-120.196159,81
United States of America,California,Madera,La Vina,36.879865,-120.114802,73
United States of America,California,Madera,Madera,37.035895,-119.9792976,
United States of America,California,Madera,Madera,36.963411,-120.067316,81.48197937
United States of America,California,Madera,Madera Acres,37.009271,-120.079922,83.47738647
United States of America,California,Madera,Madera Southeast,36.8838955,-119.9925738,
United States of America,California,Madera,Madera West,36.9193435,-120.3501354,
United States of America,California,Madera,Nipinnawasee,37.402948,-119.729259,1130
United States of America,California,Madera,Oakhurst,37.331487,-119.647915,689.1306763
United States of America,California,Madera,Oakhurst-North Fork,37.4246584,-119.4194905,
United States of America,California,Madera,Parksdale,36.943528,-120.021881,83.30628967
United States of America,California,Madera,Parkwood,36.934403,-120.05338,79.6531601
United States of America,California,Madera,Rolling Hills,36.904023,-119.796683,118
United States of America,California,Madera,Yosemite Lakes,37.1816,-119.771484,390.3918457
United States of America,California,Madera,Yosemite Lakes,37.2123505,-119.817397,
United States of America,California,Marin,Alto,37.905581,-122.518718,53
United States of America,California,Marin,Belvedere,37.874559,-122.465823,6.054947853
United States of America,California,Marin,Black Point-Green Point,38.109837,-122.503561,10.97237492
United States of America,California,Marin,Bolinas,37.8953941,-122.7057678,
United States of America,California,Marin,Bolinas,37.902426,-122.699503,57.39638519
United States of America,California,Marin,Corte Madera,37.924075,-122.516942,12.02781487
United States of America,California,Marin,Dillon Beach,38.237548,-122.961637,9.910319328
United States of America,California,Marin,Fairfax,37.986023,-122.592823,38.90683746
United States of America,California,Marin,Inverness,38.092984,-122.848432,28.56497002
United States of America,California,Marin,Kentfield,37.9393245,-122.551529,198.5255127
United States of America,California,Marin,Lagunitas-Forest Knolls,38.015064,-122.693874,75.9352417
United States of America,California,Marin,Larkspur,37.931966,-122.5390765,37.30260086
United States of America,California,Marin,Lucas Valley-Marinwood,38.027989,-122.562783,42.32199478
United States of America,California,Marin,Marin City,37.871156,-122.513735,17
United States of America,California,Marin,Mill Valley,37.9159915,-122.548243,155.463028
United States of America,California,Marin,Muir Beach,37.863804,-122.581336,105.6321793
United States of America,California,Marin,Nicasio,38.060621,-122.700821,62
United States of America,California,Marin,Northwest Marin,38.1073839,-122.8644884,
United States of America,California,Marin,Novato,38.08984067,-122.5517763,4.484644413
United States of America,California,Marin,Novato,38.0982314,-122.5402875,
United States of America,California,Marin,Point Reyes Station,38.073344,-122.806022,24.02040863
United States of America,California,Marin,Ross,37.962673,-122.55809,9.244499207
United States of America,California,Marin,Ross Valley,37.9613104,-122.5862388,
United States of America,California,Marin,San Anselmo,37.980073,-122.568123,24.74902916
United States of America,California,Marin,San Geronimo,38.012322,-122.666094,90.71191406
United States of America,California,Marin,San Rafael,37.983256,-122.523694,26.39631462
United States of America,California,Marin,San Rafael,38.0020754,-122.4891174,
United States of America,California,Marin,Santa Venetia,38.008923,-122.518332,22.16660118
United States of America,California,Marin,Sausalito,37.8562425,-122.497536,139.5353241
United States of America,California,Marin,Sleepy Hollow,38.012035,-122.587607,390
United States of America,California,Marin,Southeast Marin,37.8939369,-122.494206,
United States of America,California,Marin,Stinson Beach,37.90262,-122.64544,38.37350464
United States of America,California,Marin,Strawberry,37.894576,-122.508355,37.17644882
United States of America,California,Marin,Tamalpais-Homestead Valley,37.888526,-122.539609,106.3739243
United States of America,California,Marin,Tiburon,37.88988,-122.466421,138.163147
United States of America,California,Marin,Tomales,38.245809,-122.905377,26.3003788
United States of America,California,Marin,Woodacre,38.0062305,-122.6271325,271.8526611
United States of America,California,Mariposa,Bear Valley,37.567072,-120.122966,699
United States of America,California,Mariposa,Bootjack,37.460216,-119.882591,662.8630371
United States of America,California,Mariposa,Buck Meadows,37.812609,-120.065303,974
United States of America,California,Mariposa,Catheys Valley,37.437131,-120.093615,418
United States of America,California,Mariposa,Coulterville,37.6729487,-120.1089266,
United States of America,California,Mariposa,Coultervillle,37.710562,-120.199119,705
United States of America,California,Mariposa,El Portal,37.6737,-119.79063,955
United States of America,California,Mariposa,Fish Camp,37.479671,-119.637345,1644
United States of America,California,Mariposa,Greeley Hill,37.756917,-120.129081,1042
United States of America,California,Mariposa,Hornitos,37.503387,-120.241967,307
United States of America,California,Mariposa,Lake Don Pedro,37.645997,-120.336567,314
United States of America,California,Mariposa,Mariposa,37.487379,-119.96846,602.8920898
United States of America,California,Mariposa,Mariposa,37.4650292,-119.9952487,
United States of America,California,Mariposa,Midpines,37.553066,-119.948427,1191
United States of America,California,Mariposa,Wawona,37.548232,-119.639612,2141
United States of America,California,Mariposa,Yosemite Valley,37.6979738,-119.5740176,
United States of America,California,Mariposa,Yosemite Valley,37.743324,-119.575724,1213.884521
United States of America,California,Mendocino,Albion,39.225588,-123.756472,117
United States of America,California,Mendocino,Anchor Bay,38.812653,-123.570266,315
United States of America,California,Mendocino,Boonville,39.011474,-123.374043,104
United States of America,California,Mendocino,Brooktrails,39.442877,-123.396261,734
United States of America,California,Mendocino,Calpella,39.232209,-123.197038,257
United States of America,California,Mendocino,Caspar,39.363062,-123.804193,39
United States of America,California,Mendocino,Cleone,39.492723,-123.781297,3
United States of America,California,Mendocino,Comptche,39.265134,-123.589714,114
United States of America,California,Mendocino,Covelo,39.805632,-123.255254,426.4733582
United States of America,California,Mendocino,Covelo,39.7629881,-123.1572763,
United States of America,California,Mendocino,Fort Bragg,39.4689165,-123.6955963,
United States of America,California,Mendocino,Fort Bragg,39.442155,-123.802463,28.22949409
United States of America,California,Mendocino,Hopland,38.969054,-123.117278,151
United States of America,California,Mendocino,Hopland,38.9359453,-123.1199446,
United States of America,California,Mendocino,Laytonville,39.674818,-123.488757,497.1048279
United States of America,California,Mendocino,Laytonville-Leggett,39.7964656,-123.66861,
United States of America,California,Mendocino,Leggett,39.863539,-123.725174,392
United States of America,California,Mendocino,Little River,39.270285,-123.78175,35
United States of America,California,Mendocino,Manchester,38.974384,-123.69096,14
United States of America,California,Mendocino,Mendocino,39.1841904,-123.6082198,
United States of America,California,Mendocino,Mendocino,39.308179,-123.796064,47.29243469
United States of America,California,Mendocino,Philo,39.065712,-123.445303,67
United States of America,California,Mendocino,Point Arena,38.913118,-123.695342,70.11732483
United States of America,California,Mendocino,Point Arena,38.9140091,-123.5449,
United States of America,California,Mendocino,Potter Valley,39.319044,-123.112244,301
United States of America,California,Mendocino,Redwood Valley,39.268995,-123.202338,241
United States of America,California,Mendocino,Redwood Valley-Potter Valley,39.3038904,-123.2232878,
United States of America,California,Mendocino,Talmage,39.132846,-123.163952,191.8196259
United States of America,California,Mendocino,Ukiah,39.1262918,-123.2195965,
United States of America,California,Mendocino,Ukiah,39.148761,-123.208612,194.3588409
United States of America,California,Mendocino,Willits,39.445716,-123.3642385,
United States of America,California,Mendocino,Willits,39.404357,-123.350947,419.3853149
United States of America,California,Merced,Atwater,37.3509005,-120.588538,48.7743187
United States of America,California,Merced,Atwater,37.3798852,-120.5678527,
United States of America,California,Merced,Ballico,37.451916,-120.703707,49
United States of America,California,Merced,Bear Creek,37.2966,-120.417675,60
United States of America,California,Merced,Cressey,37.421029,-120.655689,39
United States of America,California,Merced,Delhi,37.431649,-120.780832,35.45262527
United States of America,California,Merced,Dos Palos,37.0356033,-120.6435648,
United States of America,California,Merced,Dos Palos,36.986444,-120.631989,35.78042603
United States of America,California,Merced,Dos Palos Y,37.046766,-120.639473,33
United States of America,California,Merced,El Nido,37.132376,-120.49855,41
United States of America,California,Merced,Franklin,37.327738,-120.532184,52
United States of America,California,Merced,Gustine,37.2000819,-120.9591276,
United States of America,California,Merced,Gustine,37.253867,-121.001101,30.58795547
United States of America,California,Merced,Hilmar-Irwin,37.373197,-120.8887066,
United States of America,California,Merced,Hilmar-Irwin,37.408385,-120.850712,28.13733292
United States of America,California,Merced,Le Grand,37.229177,-120.249938,76.83805084
United States of America,California,Merced,Livingston,37.38453,-120.721582,40.34247971
United States of America,California,Merced,Livingston-Delhi,37.3990116,-120.7314598,
United States of America,California,Merced,Los Banos,37.062356,-120.844174,35.48562241
United States of America,California,Merced,Los Banos,36.9556144,-120.9829041,
United States of America,California,Merced,McSwain,37.314545,-120.58674,49
United States of America,California,Merced,Merced,37.223493,-120.5523776,
United States of America,California,Merced,Merced,37.305977,-120.477916,52.5626297
United States of America,California,Merced,Planada,37.290596,-120.318929,69.29283142
United States of America,California,Merced,Planada-Le Grand,37.2845679,-120.2702772,
United States of America,California,Merced,Santa Nella,37.101437,-121.015365,45
United States of America,California,Merced,Snelling,37.5102371,-120.460899,
United States of America,California,Merced,Snelling,37.521662,-120.438498,94
United States of America,California,Merced,South Dos Palos,36.965929,-120.652477,35.78042603
United States of America,California,Merced,Stevinson,37.324664,-120.849664,29
United States of America,California,Merced,Tuttle,37.296507,-120.378867,63
United States of America,California,Merced,University of California Merced,37.370349,-120.420668,83
United States of America,California,Merced,Volta,37.087502,-120.923459,31
United States of America,California,Merced,Winton,37.388556,-120.614345,53.46004105
United States of America,California,Modoc,Adin,41.196423,-120.949426,1456
United States of America,California,Modoc,Adin-Lookout,41.3117069,-121.1804989,
United States of America,California,Modoc,Alturas,41.6379522,-120.6933431,
United States of America,California,Modoc,Alturas,41.488814,-120.545935,1332.244263
United States of America,California,Modoc,California Pines,41.411651,-120.660449,1343
United States of America,California,Modoc,Canby,41.447718,-120.884341,1355
United States of America,California,Modoc,Cedarville,41.528044,-120.174782,1446
United States of America,California,Modoc,Daphnedale Park,41.508886,-120.550672,1357
United States of America,California,Modoc,Eagleville,41.319025,-120.114603,1413
United States of America,California,Modoc,Fort Bidwell,41.86298,-120.158897,1605
United States of America,California,Modoc,Lake City,41.646002,-120.225506,1373
United States of America,California,Modoc,Likely,41.225338,-120.503274,1345
United States of America,California,Modoc,Lookout,41.210008,-121.15451,1268
United States of America,California,Modoc,New Pine Creek,41.987315,-120.300887,1446
United States of America,California,Modoc,Newell,41.889826,-121.367441,1229
United States of America,California,Modoc,Newell,41.7135485,-121.3194733,
United States of America,California,Modoc,Surprise Valley,41.5761782,-120.0968999,
United States of America,California,Mono,Aspen Springs,37.550001,-118.708699,2887
United States of America,California,Mono,Benton,37.818928,-118.484447,2352
United States of America,California,Mono,Bridgeport,38.256145,-119.212284,2368
United States of America,California,Mono,Chalfant,37.510496,-118.375084,1961
United States of America,California,Mono,Coleville,38.583293,-119.515959,2237
United States of America,California,Mono,Crowley Lake,37.569293,-118.74642,2449
United States of America,California,Mono,June Lake,37.767723,-119.10216,3232
United States of America,California,Mono,Lee Vining,37.954643,-119.122126,2783
United States of America,California,Mono,Mammoth Lakes,37.7612087,-118.6557979,
United States of America,California,Mono,Mammoth Lakes,37.636893,-118.978915,2437.534424
United States of America,California,Mono,McGee Creek,37.572676,-118.790994,3186
United States of America,California,Mono,Mono City,38.041184,-119.146606,2247
United States of America,California,Mono,North Mono,38.3533033,-119.2639533,
United States of America,California,Mono,Paradise,37.482854,-118.602213,1822
United States of America,California,Mono,Sunny Slopes,37.569376,-118.675837,2205
United States of America,California,Mono,Swall Meadows,37.506059,-118.642658,3406
United States of America,California,Mono,Topaz,38.658809,-119.527396,1723
United States of America,California,Mono,Walker,38.534051,-119.458178,2160
United States of America,California,Monterey,Aromas,36.8872295,-121.639604,49.88766098
United States of America,California,Monterey,Big Sur,36.2170525,-121.7232152,
United States of America,California,Monterey,Boronda,36.697797,-121.671204,14.70440865
United States of America,California,Monterey,Bradley,35.862967,-120.802698,166.3103485
United States of America,California,Monterey,Carmel Valley,36.3913637,-121.6806215,
United States of America,California,Monterey,Carmel Valley Village,36.477473,-121.729832,119.0073318
United States of America,California,Monterey,Carmel-by-the-Sea,36.5176049,-121.8888833,
United States of America,California,Monterey,Carmel-by-the-Sea,36.554552,-121.921174,69.18278503
United States of America,California,Monterey,Castroville,36.7638822,-121.7973384,
United States of America,California,Monterey,Castroville,36.764915,-121.753504,7.46638155
United States of America,California,Monterey,Chualar,36.570034,-121.515511,36.9090004
United States of America,California,Monterey,Del Monte Forest,36.5750755,-121.9372795,116.5619659
United States of America,California,Monterey,Del Rey Oaks,36.59506,-121.839043,34.88762665
United States of America,California,Monterey,Elkhorn,36.810806,-121.718531,76.84222412
United States of America,California,Monterey,Gonzales,36.5497179,-121.435605,
United States of America,California,Monterey,Gonzales,36.508713,-121.442644,40.91600037
United States of America,California,Monterey,Greenfield,36.323156,-121.244718,86.91500092
United States of America,California,Monterey,Greenfield,36.3445599,-121.2467936,
United States of America,California,Monterey,King City,36.211251,-121.127907,100.4013214
United States of America,California,Monterey,King City,36.208771,-121.1524106,
United States of America,California,Monterey,Las Lomas,36.865421,-121.734016,11.29720211
United States of America,California,Monterey,Lockwood,35.941175,-121.080142,304
United States of America,California,Monterey,Marina,36.677353,-121.772891,46.81586075
United States of America,California,Monterey,Monterey,36.60001,-121.890605,3.920616865
United States of America,California,Monterey,Moss Landing,36.8065835,-121.7860075,2.221224308
United States of America,California,Monterey,Pacific Grove,36.619065,-121.921025,43.26723862
United States of America,California,Monterey,Pajaro,36.899488,-121.749283,7.946727753
United States of America,California,Monterey,Pajaro,36.8455506,-121.7812899,
United States of America,California,Monterey,Pine Canyon,36.175697,-121.149815,117
United States of America,California,Monterey,Prunedale,36.80534633,-121.6688203,59.86649704
United States of America,California,Monterey,Salinas,36.7046927,-121.5899645,
United States of America,California,Monterey,Salinas,36.683859,-121.643128,12.83699989
United States of America,California,Monterey,San Ardo,35.9565446,-120.9320576,
United States of America,California,Monterey,San Ardo,36.020333,-120.904859,137.7808685
United States of America,California,Monterey,San Lucas,36.12955,-121.019641,127.8981705
United States of America,California,Monterey,Sand City,36.614759,-121.85006,18.86100006
United States of America,California,Monterey,Seaside,36.61581,-121.833957,34.82874298
United States of America,California,Monterey,Seaside-Monterey,36.6352009,-121.9261448,
United States of America,California,Monterey,Soledad,36.4490795,-121.35228,55.93759537
United States of America,California,Monterey,Soledad,36.3867895,-121.4168715,
United States of America,California,Monterey,Spreckels,36.624606,-121.646554,18.41474915
United States of America,California,Monterey,Toro Park,36.555867,-121.644635,
United States of America,California,Napa,American Canyon,38.168059,-122.252589,16.71115494
United States of America,California,Napa,Angwin,38.574506,-122.448072,526.3936768
United States of America,California,Napa,Angwin,38.5549587,-122.4283032,
United States of America,California,Napa,Calistoga,38.581357,-122.582757,109.0493011
United States of America,California,Napa,Calistoga,38.6339801,-122.5282377,
United States of America,California,Napa,Deer Park,38.537257,-122.472386,160.1526489
United States of America,California,Napa,Lake Berryessa,38.6404729,-122.2866466,
United States of America,California,Napa,Moskowite Corner,38.446317,-122.194511,227
United States of America,California,Napa,Napa,38.304764,-122.298885,13.79645252
United States of America,California,Napa,Napa,38.3381868,-122.2763008,
United States of America,California,Napa,Oakville,38.438372,-122.406772,52
United States of America,California,Napa,Rutherford,38.456785,-122.423136,48
United States of America,California,Napa,Silverado Resort,38.353637,-122.255539,251
United States of America,California,Napa,St. Helena,38.502858,-122.469648,75.5622406
United States of America,California,Napa,St. Helena,38.476171,-122.4673524,
United States of America,California,Napa,Yountville,38.403011,-122.362285,32.21120071
United States of America,California,Nevada,Alta Sierra,39.128952,-121.052442,664.9116211
United States of America,California,Nevada,Donner,39.3964284,-120.358068,
United States of America,California,Nevada,Floriston,39.39293,-120.015119,1675
United States of America,California,Nevada,Graniteville,39.444366,-120.736028,1594
United States of America,California,Nevada,Grass Valley,39.1687002,-121.0737195,
United States of America,California,Nevada,Grass Valley,39.2283675,-121.060497,810.6077881
United States of America,California,Nevada,Kingvale,39.320331,-120.438658,1965
United States of America,California,Nevada,Lake of the Pines,39.038571,-121.061354,477.3618164
United States of America,California,Nevada,Lake Wildwood,39.234885,-121.203026,408.6130371
United States of America,California,Nevada,Nevada City,39.3478111,-120.9187284,
United States of America,California,Nevada,Nevada City,39.2540845,-121.023246,789.7645264
United States of America,California,Nevada,North San Juan,39.371814,-121.106083,495
United States of America,California,Nevada,Penn Valley,39.198214,-121.188965,424.8971252
United States of America,California,Nevada,Rough and Ready,39.234016,-121.138016,428
United States of America,California,Nevada,Soda Springs,39.324805,-120.378749,2065
United States of America,California,Nevada,Truckee,39.342163,-120.203568,1934.635864
United States of America,California,Nevada,Washington,39.359164,-120.790482,1057
United States of America,California,Orange,Aliso Viejo,33.575096,-117.725431,109.9769897
United States of America,California,Orange,Anaheim,33.836165,-117.889769,55.5336647
United States of America,California,Orange,Anaheim-Santa Ana-Garden Grove,33.8278381,-117.8596987,
United States of America,California,Orange,Brea,33.923339,-117.888924,116.3333893
United States of America,California,Orange,Buena Park,33.856214,-118.004169,22.24116516
United States of America,California,Orange,Central Coast,33.6148591,-117.8811023,
United States of America,California,Orange,Costa Mesa,33.666248,-117.9119883,20.80204391
United States of America,California,Orange,Coto de Caza,33.595925,-117.587665,206.5262451
United States of America,California,Orange,Cypress,33.818315,-118.039045,11.39112949
United States of America,California,Orange,Dana Point,33.47221,-117.693038,74.01150513
United States of America,California,Orange,Foothill Ranch,33.688524,-117.664281,327.4786072
United States of America,California,Orange,Fountain Valley,33.719759,-117.940061,11.35313034
United States of America,California,Orange,Fullerton,33.879914,-117.928749,77.78848267
United States of America,California,Orange,Garden Grove,33.775531,-117.9767255,19.87163353
United States of America,California,Orange,Huntington Beach,33.692888,-118.000194,10.69391251
United States of America,California,Orange,Irvine,33.66791975,-117.8049148,31.18000412
United States of America,California,Orange,Irvine-Lake Forest,33.700735,-117.7241772,
United States of America,California,Orange,La Habra,33.929313,-117.951718,85.28086853
United States of America,California,Orange,La Palma,33.849327,-118.043951,14.13436222
United States of America,California,Orange,Ladera Ranch,33.549608,-117.64157,224
United States of America,California,Orange,Laguna Beach,33.531525,-117.769043,47.33460236
United States of America,California,Orange,Laguna Hills,33.59959,-117.699569,124.0122986
United States of America,California,Orange,Laguna Niguel,33.531938,-117.702503,84.72259521
United States of America,California,Orange,Laguna Woods,33.609165,-117.732791,149.4516144
United States of America,California,Orange,Lake Forest,33.638211,-117.686039,148.1121979
United States of America,California,Orange,Las Flores,33.586924,-117.627414,196.3628693
United States of America,California,Orange,Los Alamitos,33.793707,-118.067649,5.295055866
United States of America,California,Orange,Midway City,33.744975,-117.985016,17
United States of America,California,Orange,Mission Viejo,33.61741567,-117.6539733,195.3895264
United States of America,California,Orange,Mission Viejo,33.5627515,-117.5922492,
United States of America,California,Orange,Newport Beach,33.616671,-117.897604,4.952251911
United States of America,California,Orange,Newport Coast,33.5965755,-117.817992,264.3361511
United States of America,California,Orange,North Coast,33.6926411,-118.0288122,
United States of America,California,Orange,North Tustin,33.764601,-117.794301,220
United States of America,California,Orange,Orange,33.791819,-117.795992,111.4996185
United States of America,California,Orange,Placentia,33.882364,-117.85513,87.3242569
United States of America,California,Orange,Portola Hills,33.683672,-117.632872,429.9650574
United States of America,California,Orange,Rancho Santa Margarita,33.641518,-117.594524,306.5231018
United States of America,California,Orange,Rossmoor,33.788917,-118.079721,3.771037102
United States of America,California,Orange,San Clemente,33.449388,-117.605929,101.7394409
United States of America,California,Orange,San Joaquin Hills,33.612357,-117.836691,186.8008881
United States of America,California,Orange,San Juan Capistrano,33.5070325,-117.658346,47.50022125
United States of America,California,Orange,Santa Ana,33.740717,-117.881408,26.89811897
United States of America,California,Orange,Seal Beach,33.7651795,-118.0780285,2.686801434
United States of America,California,Orange,Silverado,33.6886899,-117.5500807,
United States of America,California,Orange,South Coast,33.5044679,-117.7172792,
United States of America,California,Orange,Stanton,33.802365,-117.994555,19.36685944
United States of America,California,Orange,Sunset Beach,33.718206,-118.072159,0
United States of America,California,Orange,Tustin,33.7375165,-117.805884,31.79597664
United States of America,California,Orange,Tustin Foothills,33.765117,-117.799268,73.61208344
United States of America,California,Orange,Villa Park,33.816183,-117.811106,107.7500992
United States of America,California,Orange,Westminster,33.7552925,-117.9846655,12.02247334
United States of America,California,Orange,Yorba Linda,33.886014,-117.789089,158.0410461
United States of America,California,Placer,Alta,39.213802,-120.803274,1069
United States of America,California,Placer,Auburn,38.9388984,-121.1223601,
United States of America,California,Placer,Auburn,38.898671,-121.074399,383.401825
United States of America,California,Placer,Carnelian Bay,39.234707,-120.076662,2189
United States of America,California,Placer,Colfax,39.09726,-120.954017,734.776062
United States of America,California,Placer,Colfax-Monumental Ridge,39.2153276,-120.2438053,
United States of America,California,Placer,Dollar Point,39.188639,-120.108848,1938.252563
United States of America,California,Placer,Dutch Flat,39.208008,-120.834475,958
United States of America,California,Placer,Foresthill,39.019562,-120.836085,944.5454712
United States of America,California,Placer,Foresthill-Back Country,39.0828051,-120.5640417,
United States of America,California,Placer,Granite Bay,38.748504,-121.179793,109.5400467
United States of America,California,Placer,Kings Beach,39.24117,-120.023295,1920.534058
United States of America,California,Placer,Kingvale,39.320331,-120.438658,1965
United States of America,California,Placer,Lake Tahoe,39.1852757,-120.0961442,
United States of America,California,Placer,Lincoln,38.870559,-121.2650725,65.71189117
United States of America,California,Placer,Lincoln,38.8948124,-121.3464636,
United States of America,California,Placer,Loomis,38.816436,-121.192778,111.1629181
United States of America,California,Placer,Meadow Vista,39.003795,-121.029242,505.3544312
United States of America,California,Placer,Newcastle,38.867664,-121.131821,249
United States of America,California,Placer,North Auburn,38.933881,-121.083769,453.9204407
United States of America,California,Placer,Penryn,38.84785,-121.169918,185
United States of America,California,Placer,Rocklin,38.7986411,-121.1835716,
United States of America,California,Placer,Rocklin,38.809171,-121.255604,76.73078156
United States of America,California,Placer,Roseville,38.7566441,-121.3046302,
United States of America,California,Placer,Roseville,38.75741767,-121.291339,49.4277153
United States of America,California,Placer,Sheridan,38.969004,-121.35597,34
United States of America,California,Placer,Sunnyside-Tahoe City,39.150272,-120.149794,1956.021973
United States of America,California,Placer,Tahoe Vista,39.246369,-120.048962,1923.039795
United States of America,California,Placer,Tahoma,39.063305,-120.143827,2074
United States of America,California,Plumas,Almanor,40.216857,-121.177325,1388.794067
United States of America,California,Plumas,Beckwourth,39.827528,-120.40371,1516.532471
United States of America,California,Plumas,Belden,40.006439,-121.252546,673.3582764
United States of America,California,Plumas,Blairsden,39.777736,-120.616367,1321.144409
United States of America,California,Plumas,Bucks Lake,39.872496,-121.178096,1606.997314
United States of America,California,Plumas,C-Road,39.759419,-120.58356,1445.791626
United States of America,California,Plumas,Canyondam,40.169921,-121.075586,1400.950684
United States of America,California,Plumas,Caribou,40.079929,-121.157397,973.6605835
United States of America,California,Plumas,Chester,40.302395,-121.234672,1383.459717
United States of America,California,Plumas,Chester,40.2614735,-121.154435,
United States of America,California,Plumas,Chilcoot-Vinton,39.800609,-120.144398,1537.029785
United States of America,California,Plumas,Clio,39.745044,-120.571412,1341.176758
United States of America,California,Plumas,Crescent Mills,40.096329,-120.912872,1080.431519
United States of America,California,Plumas,Cromberg,39.868589,-120.707044,1283.808472
United States of America,California,Plumas,Delleker,39.811343,-120.497651,1496.606689
United States of America,California,Plumas,East Quincy,39.935153,-120.90767,1064.401855
United States of America,California,Plumas,East Shore,40.242583,-121.077361,1383.928833
United States of America,California,Plumas,Feather River Canyon,39.9913299,-121.2307418,
United States of America,California,Plumas,Gold Mountain,39.761315,-120.519056,1479
United States of America,California,Plumas,Graeagle,39.764319,-120.623262,1345.979858
United States of America,California,Plumas,Graeagle,39.7565884,-120.6678548,
United States of America,California,Plumas,Greenhorn,39.905794,-120.748665,1371.015991
United States of America,California,Plumas,Greenville,40.140069,-120.951268,1093.531128
United States of America,California,Plumas,Greenville,40.127115,-120.7506908,
United States of America,California,Plumas,Hamilton Branch,40.274001,-121.095899,1413.319336
United States of America,California,Plumas,Indian Falls,40.050816,-120.979897,917.8042603
United States of America,California,Plumas,Iron Horse,39.789714,-120.495605,1507.431885
United States of America,California,Plumas,Johnsville,39.779359,-120.693855,1547.473999
United States of America,California,Plumas,Keddie,40.005901,-120.956899,957.1903076
United States of America,California,Plumas,La Porte,39.681908,-120.984732,1512.168945
United States of America,California,Plumas,Lake Almanor Country Club,40.248171,-121.14752,1402.360107
United States of America,California,Plumas,Lake Almanor Peninsula,40.275319,-121.126715,1383.843018
United States of America,California,Plumas,Lake Almanor West,40.235246,-121.20418,1416.244995
United States of America,California,Plumas,Lake Davis,39.868841,-120.472214,1820.906982
United States of America,California,Plumas,Little Grass Valley,39.716311,-120.976287,1550.838379
United States of America,California,Plumas,Mabie,39.77704,-120.544748,1489
United States of America,California,Plumas,Meadow Valley,39.936921,-121.062051,1133.456543
United States of America,California,Plumas,Mohawk Vista,39.78165,-120.580343,1533.523071
United States of America,California,Plumas,Paxton,40.036559,-120.995701,942.6520386
United States of America,California,Plumas,Plumas Eureka,39.789608,-120.651553,1337.200073
United States of America,California,Plumas,Portola,39.9140961,-120.3358146,
United States of America,California,Plumas,Portola,39.810151,-120.469843,1479.472412
United States of America,California,Plumas,Prattville,40.208022,-121.156603,1388.397949
United States of America,California,Plumas,Quincy,39.936279,-120.947921,1047.286865
United States of America,California,Plumas,Quincy,39.8314906,-121.0251013,
United States of America,California,Plumas,Spring Garden,39.907076,-120.796812,1199.343018
United States of America,California,Plumas,Storrie,39.91758,-121.323457,558.8695068
United States of America,California,Plumas,Taylorsville,40.073685,-120.83818,1085.46167
United States of America,California,Plumas,Tobin,39.920539,-121.298918,959.1477661
United States of America,California,Plumas,Twain,40.018101,-121.048898,866.432373
United States of America,California,Plumas,Valley Ranch,39.738392,-120.567839,1353.443237
United States of America,California,Plumas,Warner Valley,40.395657,-121.3177,1677
United States of America,California,Plumas,Whitehawk,39.723136,-120.548805,1379.274658
United States of America,California,Riverside,Aguanga,33.452247,-116.85547,1013
United States of America,California,Riverside,Anza,33.567847,-116.696623,1583
United States of America,California,Riverside,Banning,33.931729,-116.897557,770.2086792
United States of America,California,Riverside,Beaumont,33.8848935,-116.9795065,773.0875854
United States of America,California,Riverside,Bermuda Dunes,33.744503,-116.285241,24.68719482
United States of America,California,Riverside,Blythe,33.5540056,-114.6400095,
United States of America,California,Riverside,Blythe,33.639476,-114.613957,82.35900116
United States of America,California,Riverside,Cabazon,33.909086,-116.766373,496.5083618
United States of America,California,Riverside,Calimesa,33.988116,-117.042918,759.581604
United States of America,California,Riverside,Canyon Lake,33.683575,-117.2640505,440.6298828
United States of America,California,Riverside,Cathedral City,33.81827167,-116.469664,112.0696564
United States of America,California,Riverside,Cathedral City-Palm Desert,33.7416707,-116.4054554,
United States of America,California,Riverside,Cherry Valley,33.974848,-116.9703,879.3289795
United States of America,California,Riverside,Chuckwalla Valley,33.7954484,-115.3758748,
United States of America,California,Riverside,Coachella,33.682669,-116.1416755,-24.56750107
United States of America,California,Riverside,Coachella Valley,33.5912971,-116.0696446,
United States of America,California,Riverside,Corona,33.8685675,-117.5470393,
United States of America,California,Riverside,Corona,33.86712433,-117.5729033,233.9788361
United States of America,California,Riverside,Coronita,33.875836,-117.611361,272
United States of America,California,Riverside,Crestmore Heights,34.02997,-117.395811,382
United States of America,California,Riverside,Desert Center,33.737797,-115.366617,344
United States of America,California,Riverside,Desert Edge,33.922288,-116.440092,358
United States of America,California,Riverside,Desert Hot Springs,33.960996,-116.508073,325.1533203
United States of America,California,Riverside,Desert Hot Springs,33.9308672,-116.5080453,
United States of America,California,Riverside,Desert Palms,33.77894,-116.292945,50
United States of America,California,Riverside,East Blythe,33.598061,-114.584444,81.06112671
United States of America,California,Riverside,East Hemet,33.73612,-116.940305,513.4151001
United States of America,California,Riverside,Eastvale,33.962827,-117.579068,244
United States of America,California,Riverside,El Cerrito,33.834166,-117.525527,279.4783936
United States of America,California,Riverside,El Sobrante,33.872528,-117.46253,504
United States of America,California,Riverside,Elsinore Valley,33.6005059,-117.3594952,
United States of America,California,Riverside,French Valley,33.599848,-117.106975,508
United States of America,California,Riverside,Garnet,33.918917,-116.48959,375
United States of America,California,Riverside,Glen Avon,34.017313,-117.491855,229.8773499
United States of America,California,Riverside,Good Hope,33.770627,-117.277178,663
United States of America,California,Riverside,Green Acres,33.734955,-117.07827,598
United States of America,California,Riverside,Hemet,33.7443385,-117.0119715,462.9520264
United States of America,California,Riverside,Hemet-San Jacinto,33.7430831,-116.9447509,
United States of America,California,Riverside,Highgrove,34.015253,-117.330926,294.612793
United States of America,California,Riverside,Home Gardens,33.87945,-117.511951,212.0909424
United States of America,California,Riverside,Homeland,33.741859,-117.113201,488.2179565
United States of America,California,Riverside,Idyllwild,33.5873827,-116.5995884,
United States of America,California,Riverside,Idyllwild-Pine Cove,33.745509,-116.716114,1624.180298
United States of America,California,Riverside,Indian Wells,33.715755,-116.341109,53.68700027
United States of America,California,Riverside,Indio,33.7116855,-116.2509875,9.198085785
United States of America,California,Riverside,Indio Hills,33.841674,-116.248091,728
United States of America,California,Riverside,Jurupa,33.9845634,-117.5074885,
United States of America,California,Riverside,La Quinta,33.6772895,-116.2821295,11.68700027
United States of America,California,Riverside,Lake Elsinore,33.69078625,-117.314043,452.2897034
United States of America,California,Riverside,Lake Mathews,33.824966,-117.368339,661
United States of America,California,Riverside,Lake Mathews,33.8067444,-117.3967788,
United States of America,California,Riverside,Lake Riverside,33.517135,-116.810477,1116
United States of America,California,Riverside,Lakeland Village,33.638178,-117.348719,408.3344116
United States of America,California,Riverside,Lakeview,33.831218,-117.120153,452.1901245
United States of America,California,Riverside,March AFB,33.8789835,-117.259978,460.4107361
United States of America,California,Riverside,Mead Valley,33.83325,-117.285009,674
United States of America,California,Riverside,Meadowbrook,33.724422,-117.284485,602
United States of America,California,Riverside,Mecca,33.573388,-116.073536,-52.32400131
United States of America,California,Riverside,Menifee,33.690953,-117.184876,620
United States of America,California,Riverside,Mesa Verde,33.595773,-114.731753,122
United States of America,California,Riverside,Mira Loma,33.984613,-117.51521,214.2167816
United States of America,California,Riverside,Moreno Valley,33.92440967,-117.185003,502.2997437
United States of America,California,Riverside,Mountain Center,33.711212,-116.724847,1623
United States of America,California,Riverside,Murrieta,33.5357227,-117.1093924,
United States of America,California,Riverside,Murrieta,33.569566,-117.202453,364.3692932
United States of America,California,Riverside,Murrieta Hot Springs,33.56288,-117.15561,377.867981
United States of America,California,Riverside,Norco,33.9364595,-117.5571113,203.5121002
United States of America,California,Riverside,North Shore,33.515679,-115.909235,50
United States of America,California,Riverside,Nuevo,33.807027,-117.128585,474.6209412
United States of America,California,Riverside,Oasis,33.527521,-116.126114,14
United States of America,California,Riverside,Palm Desert,33.741631,-116.336277,69.68699646
United States of America,California,Riverside,Palm Springs,33.85207267,-116.5338237,167.7382507
United States of America,California,Riverside,Palm Springs,33.7655077,-116.5580622,
United States of America,California,Riverside,Pedley,33.970659,-117.4666285,225.670105
United States of America,California,Riverside,Perris,33.796576,-117.224382,439.3855286
United States of America,California,Riverside,Perris Valley,33.7757584,-117.1715846,
United States of America,California,Riverside,Quail Valley,33.706595,-117.246094,484.0081482
United States of America,California,Riverside,Rancho Mirage,33.769227,-116.42105,75.69999695
United States of America,California,Riverside,Ripley,33.523787,-114.652992,75
United States of America,California,Riverside,Riverside,33.942555,-117.420379,237.5704956
United States of America,California,Riverside,Riverside,33.9371171,-117.3249567,
United States of America,California,Riverside,Romoland,33.745783,-117.174228,440.5780945
United States of America,California,Riverside,Rubidoux,33.981839,-117.429336,250.658432
United States of America,California,Riverside,San Gorgonio Pass,33.93885,-116.915906,
United States of America,California,Riverside,San Jacinto,33.8065715,-117.006041,450.057312
United States of America,California,Riverside,Sedco Hills,33.64069,-117.285842,405.334259
United States of America,California,Riverside,Sky Valley,33.891134,-116.354967,831
United States of America,California,Riverside,Sun City,33.708291,-117.199152,433.2734375
United States of America,California,Riverside,Sunnyslope,34.020613,-117.423352,286.1880188
United States of America,California,Riverside,Temecula,33.503295,-117.123687,379.3234863
United States of America,California,Riverside,Temescal Valley,33.757818,-117.467406,854
United States of America,California,Riverside,Thermal,33.626372,-116.13091,-10
United States of America,California,Riverside,Thousand Palms,33.816493,-116.3965935,68.69999695
United States of America,California,Riverside,Valle Vista,33.75282,-116.898159,530.3740845
United States of America,California,Riverside,Vista Santa Rosa,33.622626,-116.212623,60
United States of America,California,Riverside,Warm Springs,33.702681,-117.332566,496
United States of America,California,Riverside,Whitewater,33.935593,-116.687208,810
United States of America,California,Riverside,Wildomar,33.610485,-117.2705745,399.8276672
United States of America,California,Riverside,Winchester,33.707871,-117.086861,448.3976135
United States of America,California,Riverside,Woodcrest,33.883366,-117.363825,457.9745789
United States of America,California,Sacramento,Antelope,38.715323,-121.36096,26
United States of America,California,Sacramento,Arden-Arcade,38.605154,-121.37975,18.73137474
United States of America,California,Sacramento,Carmichael,38.639431,-121.321348,39.95248795
United States of America,California,Sacramento,Citrus Heights,38.694702,-121.290548,48.59732437
United States of America,California,Sacramento,Clay,38.314038,-121.159588,34
United States of America,California,Sacramento,Courtland,38.33291,-121.557025,1
United States of America,California,Sacramento,Elk Grove,38.4351387,-121.3278496,
United States of America,California,Sacramento,Elk Grove,38.441964,-121.394289,9.887111664
United States of America,California,Sacramento,Elverta,38.718461,-121.445475,22
United States of America,California,Sacramento,Fair Oaks,38.651254,-121.259279,61.77664948
United States of America,California,Sacramento,Florin,38.490157,-121.410862,9.880178452
United States of America,California,Sacramento,Folsom,38.661923,-121.1876153,46.80065918
United States of America,California,Sacramento,Folsom,38.6665966,-121.1416355,
United States of America,California,Sacramento,Foothill Farms,38.681736,-121.347795,46.82880402
United States of America,California,Sacramento,Franklin,38.367521,-121.461628,5
United States of America,California,Sacramento,Freeport,38.462765,-121.502216,5
United States of America,California,Sacramento,Fruitridge Pocket,38.532645,-121.455812,11
United States of America,California,Sacramento,Galt,38.3305865,-121.2066583,
United States of America,California,Sacramento,Galt,38.260842,-121.303122,15.2803278
United States of America,California,Sacramento,Gold River,38.623392,-121.247845,37.99902344
United States of America,California,Sacramento,Herald,38.291297,-121.231813,25
United States of America,California,Sacramento,Hood,38.369291,-121.515488,3
United States of America,California,Sacramento,Isleton,38.1867473,-121.6283288,
United States of America,California,Sacramento,Isleton,38.161861,-121.609269,1.824142933
United States of America,California,Sacramento,La Riviera,38.566773,-121.356772,15.89830399
United States of America,California,Sacramento,Laguna,38.423872,-121.427421,8.388687134
United States of America,California,Sacramento,Laguna West-Lakeside,38.418153,-121.469192,5.315055847
United States of America,California,Sacramento,Lemon Hill,38.517239,-121.457351,10
United States of America,California,Sacramento,Mather,38.548877,-121.283173,33
United States of America,California,Sacramento,McClellan Park,38.662834,-121.40164,22
United States of America,California,Sacramento,North Highlands,38.673003,-121.372698,31.36724281
United States of America,California,Sacramento,Orangevale,38.681903,-121.213824,76.61050415
United States of America,California,Sacramento,Parkway,38.499397,-121.451837,9
United States of America,California,Sacramento,Parkway-South Sacramento,38.511657,-121.452288,8.377093315
United States of America,California,Sacramento,Rancho Cordova,38.585083,-121.297269,29.69735146
United States of America,California,Sacramento,Rancho Cordova,38.5756735,-121.2565443,
United States of America,California,Sacramento,Rancho Murieta,38.503068,-121.084643,63.22434998
United States of America,California,Sacramento,Rio Linda,38.690252,-121.453814,16.30566788
United States of America,California,Sacramento,Rosemont,38.549802,-121.365567,15.3715744
United States of America,California,Sacramento,Sacramento,38.5457216,-121.4254872,
United States of America,California,Sacramento,Sacramento,38.555605,-121.468926,8.377093315
United States of America,California,Sacramento,Sloughhouse,38.5074766,-121.1180411,
United States of America,California,Sacramento,Vineyard,38.464488,-121.346917,26.62602615
United States of America,California,Sacramento,Walnut Grove,38.24349,-121.5121,3.05795455
United States of America,California,Sacramento,Wilton,38.409556,-121.224264,28.1593399
United States of America,California,San Benito,Aromas,36.8872295,-121.639604,49.88766098
United States of America,California,San Benito,Hollister,36.8504475,-121.4214355,84.83575439
United States of America,California,San Benito,Hollister,36.8404204,-121.35607,
United States of America,California,San Benito,Ridgemark,36.810353,-121.362816,153.0756226
United States of America,California,San Benito,San Benito-Bitterwater,36.5362472,-120.9697622,
United States of America,California,San Benito,San Juan Bautista,36.844301,-121.537232,65.28068542
United States of America,California,San Benito,San Juan Bautista,36.8257446,-121.5185873,
United States of America,California,San Benito,Tres Pinos,36.790428,-121.310609,166
United States of America,California,San Bernardino,Adelanto,34.57599,-117.432713,878.3808594
United States of America,California,San Bernardino,Apple Valley,34.511486,-117.21201,896.8289795
United States of America,California,San Bernardino,Baker,35.276918,-116.071734,333
United States of America,California,San Bernardino,Barstow,35.0115494,-117.2393193,
United States of America,California,San Bernardino,Barstow,34.876259,-117.034818,759.5783081
United States of America,California,San Bernardino,Big Bear,34.2018059,-116.9117167,
United States of America,California,San Bernardino,Big Bear City,34.262695,-116.844618,2059.14502
United States of America,California,San Bernardino,Big Bear Lake,34.241295,-116.903289,2081.159668
United States of America,California,San Bernardino,Big River,34.134021,-114.369782,131.4888306
United States of America,California,San Bernardino,Bloomington,34.059462,-117.398728,320.9476318
United States of America,California,San Bernardino,Bluewater,34.180214,-114.250531,113.4944305
United States of America,California,San Bernardino,Chino,34.017765,-117.68999,228.454361
United States of America,California,San Bernardino,Chino Hills,33.975267,-117.723054,233.678421
United States of America,California,San Bernardino,Colton,34.064945,-117.321687,298.5341492
United States of America,California,San Bernardino,Crestline,34.242456,-117.289899,1426.960327
United States of America,California,San Bernardino,Fontana,34.13055,-117.4764643,428.9596252
United States of America,California,San Bernardino,Fort Irwin,35.247995,-116.683636,820
United States of America,California,San Bernardino,Grand Terrace,34.031019,-117.316683,314.3094788
United States of America,California,San Bernardino,Hesperia,34.3635525,-117.3057895,1018.047852
United States of America,California,San Bernardino,Highland,34.118459,-117.20237,382.1272888
United States of America,California,San Bernardino,Homestead Valley,34.273026,-116.41453,1122
United States of America,California,San Bernardino,Joshua Tree,34.126979,-116.31858,877.5620728
United States of America,California,San Bernardino,Lake Arrowhead,34.2626114,-117.2836531,
United States of America,California,San Bernardino,Lake Arrowhead,34.25629,-117.191326,1569.829102
United States of America,California,San Bernardino,Lenwood,34.878243,-117.107755,683.1539307
United States of America,California,San Bernardino,Loma Linda,34.048364,-117.250648,358.0973511
United States of America,California,San Bernardino,Lucerne Valley,34.442746,-116.902054,1194
United States of America,California,San Bernardino,Lytle Creek,34.249926,-117.504431,1577
United States of America,California,San Bernardino,Mentone,34.057261,-117.126425,523.5614624
United States of America,California,San Bernardino,Montclair,34.07096,-117.697531,307.401062
United States of America,California,San Bernardino,Morongo Valley,34.055322,-116.582276,820.4641724
United States of America,California,San Bernardino,Mount Baldy-Wrightwood,34.266609,-117.5413331,
United States of America,California,San Bernardino,Mountain View Acres,34.49694,-117.348726,935.8947144
United States of America,California,San Bernardino,Muscoy,34.156009,-117.346552,429.4038391
United States of America,California,San Bernardino,Nebo Center,34.870737,-116.950718,645.6126709
United States of America,California,San Bernardino,Needles,34.838312,-114.611067,172.2699738
United States of America,California,San Bernardino,Needles,34.4972431,-114.7911307,
United States of America,California,San Bernardino,Newberry Springs-Baker,35.2018353,-115.9928386,
United States of America,California,San Bernardino,Oak Glen,34.045094,-116.95025,2577
United States of America,California,San Bernardino,Oak Hills,34.391178,-117.412598,1302
United States of America,California,San Bernardino,Ontario,34.0388445,-117.6484098,
United States of America,California,San Bernardino,Ontario,34.048159,-117.601522,272.672821
United States of America,California,San Bernardino,Phelan,34.439831,-117.52484,1472
United States of America,California,San Bernardino,Pion Hills,34.443783,-117.621433,1869
United States of America,California,San Bernardino,Rancho Cucamonga,34.127856,-117.5801743,425.0033264
United States of America,California,San Bernardino,Redlands,34.0503145,-117.154822,482.859436
United States of America,California,San Bernardino,Rialto,34.11136,-117.382403,395.468689
United States of America,California,San Bernardino,Running Springs,34.207739,-117.108285,1853.926147
United States of America,California,San Bernardino,San Antonio Heights,34.153008,-117.661433,624.8477173
United States of America,California,San Bernardino,San Bernardino,34.0951263,-117.3192878,
United States of America,California,San Bernardino,San Bernardino,34.14900433,-117.2417163,406.8057556
United States of America,California,San Bernardino,Searles Valley,35.5376297,-117.3023776,
United States of America,California,San Bernardino,Searles Valley,35.765181,-117.382803,523.3486328
United States of America,California,San Bernardino,Silver Lakes,34.751889,-117.34315,803
United States of America,California,San Bernardino,Spring Valley Lake,34.499808,-117.268609,899
United States of America,California,San Bernardino,Twentynine Palms,34.138277,-116.072409,638.9710083
United States of America,California,San Bernardino,Twentynine Palms Base,34.246588,-116.091026,570.2445068
United States of America,California,San Bernardino,Twentynine Palms-Yucca Valley,34.3542238,-115.9971323,
United States of America,California,San Bernardino,Upland,34.113259,-117.658386,429.8589478
United States of America,California,San Bernardino,Victorville,34.520459,-117.344525,905.8370361
United States of America,California,San Bernardino,Victorville-Hesperia,34.5502881,-117.2333829,
United States of America,California,San Bernardino,Wrightwood,34.355921,-117.629233,1823.333496
United States of America,California,San Bernardino,Yucaipa,34.0322835,-117.0105077,
United States of America,California,San Bernardino,Yucaipa,34.0377955,-117.0718815,705.8079834
United States of America,California,San Bernardino,Yucca Valley,34.126041,-116.416463,987.4179077
United States of America,California,San Diego,Alpine,32.8345028,-116.7622754,
United States of America,California,San Diego,Alpine,32.834563,-116.770615,572.3877563
United States of America,California,San Diego,Bonita,32.65842,-117.035336,33.64500046
United States of America,California,San Diego,Bonsall,33.26987,-117.2152065,150.1712952
United States of America,California,San Diego,Borrego Springs,33.1112185,-116.27356,
United States of America,California,San Diego,Borrego Springs,33.247113,-116.371969,174.9002228
United States of America,California,San Diego,Bostonia,32.821612,-116.949905,141.0531464
United States of America,California,San Diego,Boulevard,32.664016,-116.289606,1204
United States of America,California,San Diego,Camp Pendleton,33.3345153,-117.4336228,
United States of America,California,San Diego,Camp Pendleton North,33.304869,-117.306125,123.7901993
United States of America,California,San Diego,Camp Pendleton South,33.2133585,-117.3944295,6.481267929
United States of America,California,San Diego,Campo,32.639453,-116.474456,1035
United States of America,California,San Diego,Carlsbad,33.105815,-117.28174,52.15777206
United States of America,California,San Diego,Casa de Oro-Mount Helix,32.763359,-116.977474,240.2647858
United States of America,California,San Diego,Chula Vista,32.6452365,-117.0010635,138.5765381
United States of America,California,San Diego,Coronado,32.67819,-117.172581,0
United States of America,California,San Diego,Crest,32.805918,-116.867405,492.2258911
United States of America,California,San Diego,Del Mar,32.96178,-117.264517,44.50234985
United States of America,California,San Diego,Descanso,32.869582,-116.628077,1273
United States of America,California,San Diego,El Cajon,32.7983,-116.960055,132.3165894
United States of America,California,San Diego,Encinitas,33.044442,-117.271694,78.96430969
United States of America,California,San Diego,Escondido,33.124794,-117.08085,199.3275604
United States of America,California,San Diego,Eucalyptus Hills,32.885044,-116.945341,316
United States of America,California,San Diego,Fairbanks Ranch,32.995786,-117.183106,31.25649834
United States of America,California,San Diego,Fallbrook,33.3967676,-117.2541625,
United States of America,California,San Diego,Fallbrook,33.371691,-117.236125,223.0659637
United States of America,California,San Diego,Granite Hills,32.804101,-116.910522,200.7418518
United States of America,California,San Diego,Harbison Canyon,32.821101,-116.840051,357.5044556
United States of America,California,San Diego,Hidden Meadows,33.229571,-117.124754,496.8529053
United States of America,California,San Diego,Imperial Beach,32.578255,-117.117111,6.65899992
United States of America,California,San Diego,Jacumba,32.627709,-116.182692,960
United States of America,California,San Diego,Jamul,32.726557,-116.882336,396.0848694
United States of America,California,San Diego,Jamul,32.6787552,-116.815378,
United States of America,California,San Diego,Julian,33.07093,-116.585601,1346.060547
United States of America,California,San Diego,La Mesa,32.77145,-117.022797,159.6410065
United States of America,California,San Diego,La Presa,32.712057,-117.003862,94.60411072
United States of America,California,San Diego,Laguna-Pine Valley,32.8883528,-116.6222055,
United States of America,California,San Diego,Lake San Marcos,33.122562,-117.209411,156.5803223
United States of America,California,San Diego,Lakeside,32.849533,-116.90542,202.4491119
United States of America,California,San Diego,Lemon Grove,32.733451,-117.033702,126.2051544
United States of America,California,San Diego,Mount Laguna,32.871105,-116.424686,1827
United States of America,California,San Diego,Mountain Empire,32.7026541,-116.456874,
United States of America,California,San Diego,National City,32.670903,-117.092725,32.64500046
United States of America,California,San Diego,Oceanside,33.2440235,-117.2854795,47.90668488
United States of America,California,San Diego,Oceanside-Escondido,33.1625676,-117.1708339,
United States of America,California,San Diego,Palomar-Julian,33.2373458,-116.7059342,
United States of America,California,San Diego,Pauma Valley,33.3358648,-117.0114926,
United States of America,California,San Diego,Pine Valley,32.828184,-116.526583,1126.304565
United States of America,California,San Diego,Potrero,32.613085,-116.606813,821
United States of America,California,San Diego,Poway,32.9805205,-116.9995455,311.487915
United States of America,California,San Diego,Rainbow,33.4007875,-117.1349215,426.8451843
United States of America,California,San Diego,Ramona,33.0345023,-116.854278,
United States of America,California,San Diego,Ramona,33.035868,-116.870633,433.6570435
United States of America,California,San Diego,Rancho San Diego,32.7628785,-116.9075855,172.7749329
United States of America,California,San Diego,Rancho Santa Fe,33.023943,-117.20011,66.21085358
United States of America,California,San Diego,San Diego,32.8212225,-117.1012203,
United States of America,California,San Diego,San Diego,32.98022833,-117.036668,186.0317688
United States of America,California,San Diego,San Diego Country Estates,33.002636,-116.799005,440.7590637
United States of America,California,San Diego,San Marcos,33.1161955,-117.184626,327.7037964
United States of America,California,San Diego,Santee,32.848237,-116.988249,102.6682281
United States of America,California,San Diego,Solana Beach,32.995393,-117.26038,36.86758423
United States of America,California,San Diego,Spring Valley,32.734318,-116.981372,190.6806488
United States of America,California,San Diego,Valley Center,33.2389528,-116.9994685,
United States of America,California,San Diego,Valley Center,33.2168225,-117.006011,531.2764893
United States of America,California,San Diego,Vista,33.193549,-117.24114,134.7944031
United States of America,California,San Diego,Winter Gardens,32.841043,-116.927747,218.3210144
United States of America,California,San Francisco,San Francisco,37.759881,-122.437392,47.05514908
United States of America,California,San Francisco,San Francisco,37.7272391,-123.0322294,
United States of America,California,San Joaquin,Acampo,38.173528,-121.279891,15
United States of America,California,San Joaquin,August,37.97989,-121.263984,7.628485203
United States of America,California,San Joaquin,Collierville,38.214149,-121.267454,13
United States of America,California,San Joaquin,Country Club,37.970723,-121.334988,1.837214708
United States of America,California,San Joaquin,Dogtown,38.209585,-121.15506,32
United States of America,California,San Joaquin,Escalon,37.794055,-120.995022,36.09923172
United States of America,California,San Joaquin,Escalon,37.8263541,-121.0207159,
United States of America,California,San Joaquin,Farmington,37.929625,-120.999574,33.28674316
United States of America,California,San Joaquin,French Camp,37.882742,-121.279788,4.130242348
United States of America,California,San Joaquin,Garden Acres,37.961373,-121.231345,9.493308067
United States of America,California,San Joaquin,Kennedy,37.931774,-121.251802,7.265882492
United States of America,California,San Joaquin,Lathrop,37.8107015,-121.3082945,3.757037163
United States of America,California,San Joaquin,Lincoln Village,38.004122,-121.334544,2.462822199
United States of America,California,San Joaquin,Linden,38.019989,-121.09145,27.21892357
United States of America,California,San Joaquin,Linden-Farmington,37.9808776,-121.0367254,
United States of America,California,San Joaquin,Lockeford,38.1601295,-121.0871305,
United States of America,California,San Joaquin,Lockeford,38.157565,-121.151455,30.97011375
United States of America,California,San Joaquin,Lodi,38.1451721,-121.2966189,
United States of America,California,San Joaquin,Lodi,38.1097745,-121.337233,7.949288845
United States of America,California,San Joaquin,Manteca,37.795157,-121.2262148,
United States of America,California,San Joaquin,Manteca,37.802777,-121.220818,11.38512993
United States of America,California,San Joaquin,Morada,38.048998,-121.254051,12.20946407
United States of America,California,San Joaquin,Mountain House,37.774018,-121.545262,12
United States of America,California,San Joaquin,North Woodbridge,38.160369,-121.308981,9.054326057
United States of America,California,San Joaquin,Peters,37.9763,-121.04394,28
United States of America,California,San Joaquin,Ripon,37.740478,-121.128224,19.62249184
United States of America,California,San Joaquin,Ripon,37.7850141,-121.1158332,
United States of America,California,San Joaquin,South Woodbridge,38.154118,-121.306008,12.7038641
United States of America,California,San Joaquin,Stockton,37.941158,-121.3859097,
United States of America,California,San Joaquin,Stockton,37.98709075,-121.2823213,6.714074135
United States of America,California,San Joaquin,Taft Mosswood,37.916324,-121.281563,3.666037083
United States of America,California,San Joaquin,Terminous,38.115256,-121.489558,0
United States of America,California,San Joaquin,Thornton,38.230913,-121.425063,1
United States of America,California,San Joaquin,Thornton,38.1304593,-121.4633246,
United States of America,California,San Joaquin,Tracy,37.6671789,-121.4248557,
United States of America,California,San Joaquin,Tracy,37.737979,-121.433857,16.74600029
United States of America,California,San Joaquin,Victor,38.138483,-121.198838,22
United States of America,California,San Joaquin,Waterloo,38.036452,-121.184551,23
United States of America,California,San Joaquin,Woodbridge,38.169204,-121.311322,10
United States of America,California,San Luis Obispo,Arroyo Grande,35.120878,-120.586799,37.73645401
United States of America,California,San Luis Obispo,Arroyo Grande,35.1037771,-120.4297037,
United States of America,California,San Luis Obispo,Atascadero,35.467559,-120.694227,394.8865967
United States of America,California,San Luis Obispo,Atascadero,35.2836758,-120.0691629,
United States of America,California,San Luis Obispo,Avilla Beach,35.197131,-120.719194,235
United States of America,California,San Luis Obispo,Baywood-Los Osos,35.316795,-120.835605,27.93957901
United States of America,California,San Luis Obispo,Blacklake,35.049689,-120.538642,100
United States of America,California,San Luis Obispo,Callender,35.047967,-120.57592,35
United States of America,California,San Luis Obispo,Cambria,35.55403,-121.087394,64.61249542
United States of America,California,San Luis Obispo,Cayucos,35.43839,-120.890647,12.52208233
United States of America,California,San Luis Obispo,Creston,35.517294,-120.520908,334
United States of America,California,San Luis Obispo,Edna,35.210785,-120.605966,82
United States of America,California,San Luis Obispo,El Paso de Robles (Paso Robles),35.607662,-120.6881465,216.6987305
United States of America,California,San Luis Obispo,Garden Farms,35.415781,-120.614034,286
United States of America,California,San Luis Obispo,Grover Beach,35.120934,-120.619529,19.50183678
United States of America,California,San Luis Obispo,Lake Nacimiento,35.737585,-120.881328,289.2446594
United States of America,California,San Luis Obispo,Los Berros,35.080906,-120.545031,46
United States of America,California,San Luis Obispo,Los Osos,35.306807,-120.824798,4
United States of America,California,San Luis Obispo,Los Ranchos,35.21026,-120.629142,72
United States of America,California,San Luis Obispo,Morro Bay,35.379043,-120.853354,9.366292953
United States of America,California,San Luis Obispo,Nipomo,35.030027,-120.490032,123.541214
United States of America,California,San Luis Obispo,North Coast,35.5359192,-121.0303991,
United States of America,California,San Luis Obispo,Oak Shores,35.762422,-120.981728,356
United States of America,California,San Luis Obispo,Oceano,35.10268,-120.611471,18.21382713
United States of America,California,San Luis Obispo,Paso Robles,35.6402851,-120.5446025,
United States of America,California,San Luis Obispo,Pismo Beach,35.1624075,-120.6771755,71.57682037
United States of America,California,San Luis Obispo,San Luis Obispo,35.2348219,-120.6790891,
United States of America,California,San Luis Obispo,San Luis Obispo,35.274305,-120.663192,62.15412903
United States of America,California,San Luis Obispo,San Miguel,35.751313,-120.695413,191.5020142
United States of America,California,San Luis Obispo,San Simeon,35.618205,-121.137437,98
United States of America,California,San Luis Obispo,Santa Margarita,35.389427,-120.60816,306
United States of America,California,San Luis Obispo,Shandon,35.656178,-120.378817,316.5901489
United States of America,California,San Luis Obispo,Templeton,35.563098,-120.701353,238.7702942
United States of America,California,San Luis Obispo,Whitley Gardens,35.65716,-120.506913,277
United States of America,California,San Luis Obispo,Woodlands,35.028879,-120.552391,61
United States of America,California,San Mateo,Atherton,37.458615,-122.200099,18.82195854
United States of America,California,San Mateo,Belmont,37.518087,-122.291673,66.87705231
United States of America,California,San Mateo,Brisbane,37.684932,-122.398951,7.22431469
United States of America,California,San Mateo,Broadmoor,37.692433,-122.478901,40.51481628
United States of America,California,San Mateo,Burlingame,37.584285,-122.349388,6.022253036
United States of America,California,San Mateo,Colma,37.67878,-122.455513,56.15058136
United States of America,California,San Mateo,Daly City,37.6907,-122.46595,63.15598679
United States of America,California,San Mateo,East Palo Alto,37.467038,-122.139699,5.097148418
United States of America,California,San Mateo,El Granada,37.503766,-122.47323,16.77771759
United States of America,California,San Mateo,Emerald Lake Hills,37.464388,-122.266389,142.1273651
United States of America,California,San Mateo,Foster City,37.5769,-122.232405,0
United States of America,California,San Mateo,Half Moon Bay,37.45884,-122.436848,20.67864227
United States of America,California,San Mateo,Half Moon Bay,37.3409816,-122.3763131,
United States of America,California,San Mateo,Highlands-Baywood Park,37.524893,-122.343299,118.2721024
United States of America,California,San Mateo,Hillsborough,37.5688325,-122.3604725,36.09768295
United States of America,California,San Mateo,La Honda,37.31819,-122.265087,308
United States of America,California,San Mateo,Ladera,37.39958,-122.199301,67
United States of America,California,San Mateo,Loma Mar,37.265797,-122.300684,153
United States of America,California,San Mateo,Menlo Park,37.454188,-122.178579,20.95568657
United States of America,California,San Mateo,Millbrae,37.5943355,-122.4061995,125.7446899
United States of America,California,San Mateo,Montara,37.539639,-122.506426,55.70993042
United States of America,California,San Mateo,Moss Beach,37.52524,-122.512811,19.2914238
United States of America,California,San Mateo,North Fair Oaks,37.47517,-122.203506,8.762893677
United States of America,California,San Mateo,Pacifica,37.622685,-122.485507,16.38628387
United States of America,California,San Mateo,Pescadero,37.250751,-122.372518,0
United States of America,California,San Mateo,Portola Valley,37.375023,-122.218635,160.2480774
United States of America,California,San Mateo,Redwood City,37.482887,-122.236006,5.701128006
United States of America,California,San Mateo,San Bruno,37.6173265,-122.42931,72.72653198
United States of America,California,San Mateo,San Carlos,37.499187,-122.263278,33.36100006
United States of America,California,San Mateo,San Mateo,37.554286,-122.313044,4.727598667
United States of America,California,San Mateo,San Mateo,37.493939,-122.2399187,
United States of America,California,San Mateo,South San Francisco,37.645601,-122.4115478,
United States of America,California,San Mateo,South San Francisco,37.655983,-122.425525,8.581671715
United States of America,California,San Mateo,West Menlo Park,37.433588,-122.202975,34.04690933
United States of America,California,San Mateo,Woodside,37.420704,-122.259777,134.8738251
United States of America,California,Santa Barbara,Ballard,34.634036,-120.115605,225
United States of America,California,Santa Barbara,Buellton,34.6101415,-120.1940295,105.2689972
United States of America,California,Santa Barbara,Carpinteria,34.399044,-119.516442,11.79699993
United States of America,California,Santa Barbara,Carpinteria,34.4199456,-119.5238703,
United States of America,California,Santa Barbara,Casmalia,34.837588,-120.531071,106
United States of America,California,Santa Barbara,Cuyama,34.931244,-119.614804,701
United States of America,California,Santa Barbara,Cuyama,34.7776482,-119.71774,
United States of America,California,Santa Barbara,Garey,34.886888,-120.314076,120
United States of America,California,Santa Barbara,Goleta,34.440493,-119.813608,19.77700043
United States of America,California,Santa Barbara,Guadalupe,34.9264815,-120.599007,
United States of America,California,Santa Barbara,Guadalupe,34.965588,-120.573089,25.59409523
United States of America,California,Santa Barbara,Isla Vista,34.414595,-119.860418,12.77700043
United States of America,California,Santa Barbara,Lompoc,34.6260558,-120.4703931,
United States of America,California,Santa Barbara,Lompoc,34.646182,-120.460316,29.77700043
United States of America,California,Santa Barbara,Los Alamos,34.741984,-120.275397,176.5861053
United States of America,California,Santa Barbara,Los Olivos,34.664745,-120.118019,298
United States of America,California,Santa Barbara,Mission Canyon,34.449797,-119.716315,185.3111877
United States of America,California,Santa Barbara,Mission Hills,34.689303,-120.43615,105.4249954
United States of America,California,Santa Barbara,Montecito,34.433687,-119.631845,46.69633484
United States of America,California,Santa Barbara,New Cuyama,34.942148,-119.680762,678
United States of America,California,Santa Barbara,Orcutt,34.87455,-120.428067,124.4193878
United States of America,California,Santa Barbara,Santa Barbara,34.425804,-119.714189,36.51731491
United States of America,California,Santa Barbara,Santa Barbara,34.0776701,-119.916239,
United States of America,California,Santa Barbara,Santa Maria,34.8906788,-120.376529,
United States of America,California,Santa Barbara,Santa Maria,34.950302,-120.4638755,58.80899811
United States of America,California,Santa Barbara,Santa Ynez,34.61208,-120.088262,183.743988
United States of America,California,Santa Barbara,Sisquoc,34.862172,-120.294225,122
United States of America,California,Santa Barbara,Solvang,34.593793,-120.139656,149.3690033
United States of America,California,Santa Barbara,Solvang-Santa Ynez,34.6807772,-120.0895098,
United States of America,California,Santa Barbara,Summerland,34.4212235,-119.603707,36.65726471
United States of America,California,Santa Barbara,Toro Canyon,34.418395,-119.56292,13.29378986
United States of America,California,Santa Barbara,Vandenberg AFB,34.751047,-120.497893,188.5933838
United States of America,California,Santa Barbara,Vandenberg Village,34.706281,-120.465513,111.7770004
United States of America,California,Santa Clara,Alum Rock,37.36759,-121.825473,47.57884979
United States of America,California,Santa Clara,Buena Vista,37.321226,-121.916311,37.17750168
United States of America,California,Santa Clara,Burbank,37.320521,-121.931591,39.23200226
United States of America,California,Santa Clara,Cambrian Park,37.255593,-121.928915,72.45760345
United States of America,California,Santa Clara,Campbell,37.283909,-121.955026,61.43200302
United States of America,California,Santa Clara,Cupertino,37.326451,-122.0633655,105.170578
United States of America,California,Santa Clara,Diablo Range,37.2547699,-121.5119781,
United States of America,California,Santa Clara,East Foothills,37.383989,-121.822396,97.13832092
United States of America,California,Santa Clara,Fruitdale,37.312743,-121.935837,46.74984741
United States of America,California,Santa Clara,Gilroy,37.021419,-121.5921593,65.66770935
United States of America,California,Santa Clara,Lexington Hills,37.1484376,-121.9287007,
United States of America,California,Santa Clara,Lexington Hills,37.157695,-121.984013,453.5994873
United States of America,California,Santa Clara,Llagas-Uvas,37.0468198,-121.7106173,
United States of America,California,Santa Clara,Los Altos,37.350045,-122.084874,76.53853607
United States of America,California,Santa Clara,Los Altos Hills,37.370969,-122.137687,114.6305008
United States of America,California,Santa Clara,Los Gatos,37.236044,-121.961768,110.6754456
United States of America,California,Santa Clara,Loyola,37.349766,-122.099111,83.26204681
United States of America,California,Santa Clara,Milpitas,37.434586,-121.895059,7.630000114
United States of America,California,Santa Clara,Monte Sereno,37.238194,-121.989475,152.0123138
United States of America,California,Santa Clara,Morgan Hill,37.1457195,-121.6415235,116.8162918
United States of America,California,Santa Clara,Mountain View,37.39264,-122.082023,24.89958763
United States of America,California,Santa Clara,Palo Alto,37.3983145,-122.154042,58.66230011
United States of America,California,Santa Clara,San Jose,37.22233325,-121.8007583,194.1019135
United States of America,California,Santa Clara,San Jose,37.321956,-121.9195088,
United States of America,California,Santa Clara,San Martin,37.087746,-121.60002,86.95800018
United States of America,California,Santa Clara,Santa Clara,37.354441,-121.969119,21.62352562
United States of America,California,Santa Clara,Saratoga,37.2621265,-122.0350955,151.2512665
United States of America,California,Santa Clara,Seven Trees,37.287854,-121.837823,47.56100082
United States of America,California,Santa Clara,South Santa Clara Valley,37.0517343,-121.5748673,
United States of America,California,Santa Clara,Stanford,37.42259,-122.165413,25.24307632
United States of America,California,Santa Clara,Sunnyvale,37.371991,-122.02602,30.93770599
United States of America,California,Santa Clara,Sunol-Midtown,37.324841,-121.910198,33.92041397
United States of America,California,Santa Clara,West Santa Clara,37.3074678,-122.1119298,
United States of America,California,Santa Cruz,Amesti,36.95921,-121.782131,56.89554214
United States of America,California,Santa Cruz,Aptos,36.9815,-121.907432,64.83634949
United States of America,California,Santa Cruz,Aptos Hills-Larkin Valley,36.96086,-121.831386,120.184761
United States of America,California,Santa Cruz,Ben Lomond,37.08278,-122.083626,95.60813904
United States of America,California,Santa Cruz,Bonny Doon,37.043485,-122.136852,768
United States of America,California,Santa Cruz,Boulder Creek,37.131487,-122.124398,156.8548737
United States of America,California,Santa Cruz,Brookdale,37.105731,-122.110627,247
United States of America,California,Santa Cruz,Capitola,36.97625,-121.95475,13.34978867
United States of America,California,Santa Cruz,Corralitos,36.991303,-121.802013,77.02318573
United States of America,California,Santa Cruz,Davenport,37.017778,-122.187885,41
United States of America,California,Santa Cruz,Day Valley,37.02199767,-121.8488587,406.9904785
United States of America,California,Santa Cruz,Felton,37.051498,-122.055753,132.9584503
United States of America,California,Santa Cruz,Freedom,36.940452,-121.789376,50.22800064
United States of America,California,Santa Cruz,Interlaken,36.956293,-121.745433,19.18917274
United States of America,California,Santa Cruz,La Selva Beach,36.927376,-121.844406,82
United States of America,California,Santa Cruz,Live Oak,36.981363,-121.980476,31.33300018
United States of America,California,Santa Cruz,Lompico,37.110058,-122.05228,254
United States of America,California,Santa Cruz,Mount Hermon,37.050369,-122.051237,121
United States of America,California,Santa Cruz,Opal Cliffs,36.9615,-121.97092,7.311682701
United States of America,California,Santa Cruz,Pajaro Dunes,36.872238,-121.810066,41
United States of America,California,Santa Cruz,Paradise Park,37.006286,-122.042404,81
United States of America,California,Santa Cruz,Pasatiempo,37.003433,-122.026515,142
United States of America,California,Santa Cruz,Rio del Mar,36.963764,-121.88769,25.38591766
United States of America,California,Santa Cruz,San Lorenzo Valley,37.1646713,-122.0929441,
United States of America,California,Santa Cruz,Santa Cruz,36.9708997,-121.9745167,
United States of America,California,Santa Cruz,Santa Cruz,36.97205,-122.026252,3.879796505
United States of America,California,Santa Cruz,Scotts Valley,37.051381,-122.013236,170.7306671
United States of America,California,Santa Cruz,Seacliff,36.976657,-121.917454,50
United States of America,California,Santa Cruz,Soquel,36.986991,-121.945636,37.29791641
United States of America,California,Santa Cruz,Summit Road,37.0900016,-121.9115725,
United States of America,California,Santa Cruz,Twin Lakes,36.96345,-121.993498,14.86651516
United States of America,California,Santa Cruz,Watsonville,36.920054,-121.763725,10.98548031
United States of America,California,Santa Cruz,Watsonville,36.935379,-121.8017392,
United States of America,California,Santa Cruz,West Santa Cruz,37.0525313,-122.211385,
United States of America,California,Santa Cruz,Zayante,37.088873,-122.041356,341
United States of America,California,Shasta,Anderson,40.452092,-122.29656,129.4253998
United States of America,California,Shasta,Bella Vista,40.65018,-122.244993,259
United States of America,California,Shasta,Big Bend,41.019803,-121.907881,523.553772
United States of America,California,Shasta,Burney,40.880655,-121.66675,953.0435791
United States of America,California,Shasta,Cassel,40.921269,-121.551358,928
United States of America,California,Shasta,Central Shasta,40.7373823,-121.9181072,
United States of America,California,Shasta,Cottonwood,40.388953,-122.281823,133.9764252
United States of America,California,Shasta,East Shasta,40.9008088,-121.5428505,
United States of America,California,Shasta,Fall River Mills,41.00576,-121.440946,1016.197144
United States of America,California,Shasta,French Gulch,40.705313,-122.635174,425.0484009
United States of America,California,Shasta,Hat Creek,40.810043,-121.480945,996
United States of America,California,Shasta,Keswick,40.613439,-122.460605,233
United States of America,California,Shasta,Lakehead,40.90075,-122.392397,395
United States of America,California,Shasta,Lakehead-Lakeshore,40.901211,-122.392325,368.1127319
United States of America,California,Shasta,McArthur,41.050534,-121.399816,1009.261963
United States of America,California,Shasta,Millville,40.555904,-122.18525,151.4781494
United States of America,California,Shasta,Montgomery Creek,40.84023,-121.919586,661.442749
United States of America,California,Shasta,Mountain Gate,40.718442,-122.326259,384
United States of America,California,Shasta,Old Station,40.672167,-121.422784,1348
United States of America,California,Shasta,Palo Cedro,40.551091,-122.234255,134.8312531
United States of America,California,Shasta,Redding,40.576606,-122.370325,142.7748718
United States of America,California,Shasta,Redding,40.5578719,-122.3437583,
United States of America,California,Shasta,Round Mountain,40.799633,-121.943058,673.9623413
United States of America,California,Shasta,Sacramento Canyon,40.9866263,-122.3666461,
United States of America,California,Shasta,Shasta,40.591107,-122.479784,484
United States of America,California,Shasta,Shasta Lake,40.678167,-122.370003,242.1004486
United States of America,California,Shasta,Shingletown,40.496033,-121.863657,1090.053223
United States of America,California,Shasta,Southwest Shasta,40.5276578,-122.6481015,
United States of America,California,Sierra,Alleghany,39.46666,-120.841123,1500
United States of America,California,Sierra,Calpine,39.663293,-120.443543,1575
United States of America,California,Sierra,Downieville,39.570066,-120.821258,1059
United States of America,California,Sierra,East Sierra,39.5765017,-120.2654076,
United States of America,California,Sierra,Goodyears Bar,39.545768,-120.8881,1559
United States of America,California,Sierra,Loyalton,39.676558,-120.243157,1507.824585
United States of America,California,Sierra,Pike,39.427965,-120.999823,1159
United States of America,California,Sierra,Sattley,39.626504,-120.435616,1500
United States of America,California,Sierra,Sierra Brooks,39.642592,-120.215388,1601
United States of America,California,Sierra,Sierra City,39.574014,-120.629655,1836
United States of America,California,Sierra,Sierraville,39.575043,-120.363786,1508
United States of America,California,Sierra,Verdi,39.523692,-120.016286,1755
United States of America,California,Sierra,West Sierra,39.5811956,-120.7741559,
United States of America,California,Siskiyou,Butte Valley,41.8591979,-121.934659,
United States of America,California,Siskiyou,Carrick,41.446118,-122.363368,1070.174561
United States of America,California,Siskiyou,Dorris,41.965075,-121.918967,1293.445068
United States of America,California,Siskiyou,Dunsmuir,41.2126953,-122.3920674,
United States of America,California,Siskiyou,Dunsmuir,41.221542,-122.273011,756.2486572
United States of America,California,Siskiyou,Edgewood,41.461691,-122.427091,901.0411377
United States of America,California,Siskiyou,Etna,41.45735,-122.896875,898.5402222
United States of America,California,Siskiyou,Etna,41.327554,-123.0110405,
United States of America,California,Siskiyou,Fort Jones,41.607303,-122.841817,836.7950439
United States of America,California,Siskiyou,Fort Jones,41.6997334,-122.9107552,
United States of America,California,Siskiyou,Gazelle,41.521538,-122.520718,844.2520142
United States of America,California,Siskiyou,Greenview,41.5508755,-122.9130415,862.6768799
United States of America,California,Siskiyou,Grenada,41.644438,-122.522768,784.2756958
United States of America,California,Siskiyou,Happy Camp,41.810369,-123.389163,433
United States of America,California,Siskiyou,Happy Camp,41.7477055,-123.3041347,
United States of America,California,Siskiyou,Hornbrook,41.909594,-122.557628,661.4003906
United States of America,California,Siskiyou,Hornbrook-Hilt,41.9466483,-122.6348078,
United States of America,California,Siskiyou,Macdoel,41.826675,-122.005389,1300.919556
United States of America,California,Siskiyou,McCloud,41.254682,-122.136321,996.0435181
United States of America,California,Siskiyou,McCloud-Medicine Lake,41.4116025,-121.8260568,
United States of America,California,Siskiyou,Montague,41.727168,-122.526468,775.9851074
United States of America,California,Siskiyou,Montague,41.7845609,-122.2927628,
United States of America,California,Siskiyou,Mount Hebron,41.786373,-122.005132,1298.767334
United States of America,California,Siskiyou,Mount Shasta,41.314542,-122.31151,1098.559204
United States of America,California,Siskiyou,Mount Shasta,41.3441729,-122.3332707,
United States of America,California,Siskiyou,Tennant,41.585003,-121.911794,1461.677368
United States of America,California,Siskiyou,Tulelake,41.954029,-121.475906,1229.879395
United States of America,California,Siskiyou,Tulelake,41.8189992,-121.6338007,
United States of America,California,Siskiyou,Weed,41.424298,-122.384417,1051.501099
United States of America,California,Siskiyou,Weed,41.4800873,-122.427147,
United States of America,California,Siskiyou,Yreka,41.6608649,-122.6745712,
United States of America,California,Siskiyou,Yreka,41.726617,-122.637568,801.4697876
United States of America,California,Solano,Allendale,38.442658,-121.98141,68
United States of America,California,Solano,Benicia,38.06336,-122.156158,91.98950195
United States of America,California,Solano,Dixon,38.449108,-121.826872,20.2244091
United States of America,California,Solano,Dixon,38.4289209,-121.7996202,
United States of America,California,Solano,Elmira,38.35011,-121.90799,22.07023239
United States of America,California,Solano,Fairfield,38.257763,-122.054256,10.00399971
United States of America,California,Solano,Fairfield-Suisun City,38.2073034,-122.0296674,
United States of America,California,Solano,Green Valley,38.259313,-122.164441,42.71554565
United States of America,California,Solano,Hartley,38.420227,-121.952295,36
United States of America,California,Solano,Rio Vista,38.2050259,-121.7715997,
United States of America,California,Solano,Rio Vista,38.163913,-121.695849,15.99848938
United States of America,California,Solano,Suisun City,38.244863,-122.017048,3.716091156
United States of America,California,Solano,Vacaville,38.4097197,-122.000056,
United States of America,California,Solano,Vacaville,38.363521,-121.9612527,37.43604279
United States of America,California,Solano,Vallejo,38.1027798,-122.2182299,
United States of America,California,Solano,Vallejo,38.137304,-122.2105095,52.84845352
United States of America,California,Sonoma,Bloomfield,38.318285,-122.850237,195
United States of America,California,Sonoma,Bodega,38.348841,-122.971164,141
United States of America,California,Sonoma,Bodega Bay,38.324356,-123.038591,15.8215723
United States of America,California,Sonoma,Boyes Hot Springs,38.311068,-122.483973,33.96716309
United States of America,California,Sonoma,Carmet,38.374451,-123.071859,17
United States of America,California,Sonoma,Cazadero,38.526494,-123.097836,178
United States of America,California,Sonoma,Cloverdale,38.799059,-123.017316,96.76385498
United States of America,California,Sonoma,Cloverdale-Geyserville,38.7374049,-122.876072,
United States of America,California,Sonoma,Cotati,38.328247,-122.706713,32.5340004
United States of America,California,Sonoma,El Verano,38.299201,-122.488048,31.35993576
United States of America,California,Sonoma,Eldridge,38.342063,-122.512042,57.16014862
United States of America,California,Sonoma,Fetters Hot Springs-Agua Calient,38.322013,-122.486169,62.75357437
United States of America,California,Sonoma,Forestville,38.481762,-122.896215,59.88692093
United States of America,California,Sonoma,Fulton,38.493709,-122.773416,39
United States of America,California,Sonoma,Geyserville,38.717192,-122.903511,71
United States of America,California,Sonoma,Glen Ellen,38.364564,-122.531085,82.42646027
United States of America,California,Sonoma,Graton,38.4433195,-122.8685025,52.15270615
United States of America,California,Sonoma,Guerneville,38.506349,-122.990834,19.64541817
United States of America,California,Sonoma,Healdsburg,38.5984306,-122.8914308,
United States of America,California,Sonoma,Healdsburg,38.617593,-122.866413,41.801548
United States of America,California,Sonoma,Jenner,38.451031,-123.120176,305
United States of America,California,Sonoma,Kenwood,38.415404,-122.538734,226
United States of America,California,Sonoma,Larkfield-Wikiup,38.50861,-122.75318,55.83919907
United States of America,California,Sonoma,Monte Rio,38.470406,-123.013753,19.38232613
United States of America,California,Sonoma,Occidental,38.421121,-122.95466,161.793808
United States of America,California,Sonoma,Penngrove,38.300598,-122.670565,72
United States of America,California,Sonoma,Petaluma,38.2537847,-122.6376746,
United States of America,California,Sonoma,Petaluma,38.245849,-122.631276,7.97629118
United States of America,California,Sonoma,Rohnert Park,38.3567935,-122.705355,31.33399963
United States of America,California,Sonoma,Roseland,38.421491,-122.725974,41.65999985
United States of America,California,Sonoma,Russian River-Sonoma Coast,38.5687333,-123.1905385,
United States of America,California,Sonoma,Salmon Creek,38.346212,-123.059328,64
United States of America,California,Sonoma,Santa Rosa,38.4645578,-122.6820138,
United States of America,California,Sonoma,Santa Rosa,38.409988,-122.740504,33.36000061
United States of America,California,Sonoma,Sea Ranch,38.716494,-123.4525,27
United States of America,California,Sonoma,Sebastopol,38.403188,-122.821107,22.64690781
United States of America,California,Sonoma,Sebastopol,38.3549264,-122.8502238,
United States of America,California,Sonoma,Sereno del Mar,38.383671,-123.073148,25
United States of America,California,Sonoma,Sonoma,38.2726886,-122.4653393,
United States of America,California,Sonoma,Sonoma,38.288771,-122.458884,23.83099937
United States of America,California,Sonoma,Temelec,38.263096,-122.493258,30.07073784
United States of America,California,Sonoma,Timber Cove,38.541088,-123.258786,240
United States of America,California,Sonoma,Valley Ford,38.32456,-122.914732,25
United States of America,California,Sonoma,Windsor,38.5342475,-122.7997565,34.66799927
United States of America,California,Stanislaus,Airport,37.632431,-120.977496,31
United States of America,California,Stanislaus,Bret Harte,37.603182,-121.005844,25.80533791
United States of America,California,Stanislaus,Bystrom,37.619981,-120.97979,28.09535217
United States of America,California,Stanislaus,Ceres,37.601328,-120.957166,28.27655411
United States of America,California,Stanislaus,Cowan,37.559913,-120.989062,20
United States of America,California,Stanislaus,Crows Landing,37.394737,-121.084358,46
United States of America,California,Stanislaus,Del Rio,37.746449,-121.011604,23.56056213
United States of America,California,Stanislaus,Denair,37.527532,-120.799813,37.29144669
United States of America,California,Stanislaus,Diablo Grande,37.40056,-121.269919,425
United States of America,California,Stanislaus,East Oakdale,37.793528,-120.806669,50.97164536
United States of America,California,Stanislaus,Empire,37.644298,-120.907592,34.78026962
United States of America,California,Stanislaus,Grayson,37.564732,-121.180914,16.45353889
United States of America,California,Stanislaus,Hickman,37.624065,-120.757817,51.44273376
United States of America,California,Stanislaus,Hughson,37.6066263,-120.6716641,
United States of America,California,Stanislaus,Hughson,37.603082,-120.866838,37.90105057
United States of America,California,Stanislaus,Keyes,37.5667415,-120.9084005,30.30796051
United States of America,California,Stanislaus,Modesto,37.656639,-121.0005165,27.13872528
United States of America,California,Stanislaus,Modesto,37.6522368,-120.9690842,
United States of America,California,Stanislaus,Monterey Park Tract,37.526813,-121.011487,17
United States of America,California,Stanislaus,Newman,37.315038,-121.022476,26.97311974
United States of America,California,Stanislaus,Newman,37.3259547,-121.1933829,
United States of America,California,Stanislaus,Oakdale,37.8508043,-120.7891022,
United States of America,California,Stanislaus,Oakdale,37.769178,-120.856958,47.13663101
United States of America,California,Stanislaus,Parklawn,37.606939,-120.979265,27
United States of America,California,Stanislaus,Patterson,37.472984,-121.132867,30.77700043
United States of America,California,Stanislaus,Patterson,37.4986999,-121.298493,
United States of America,California,Stanislaus,Riverbank,37.731272,-120.943653,41.88850021
United States of America,California,Stanislaus,Riverdale Park,37.611054,-121.043786,20.06899071
United States of America,California,Stanislaus,Rouse,37.619513,-121.00837,27
United States of America,California,Stanislaus,Salida,37.669375,-121.1142927,
United States of America,California,Stanislaus,Salida,37.709877,-121.089286,20.80825043
United States of America,California,Stanislaus,Shackelford,37.615082,-120.990969,25.81963158
United States of America,California,Stanislaus,Turlock,37.505725,-120.849019,31.80497742
United States of America,California,Stanislaus,Turlock,37.4985476,-120.8639888,
United States of America,California,Stanislaus,Valley Home,37.827644,-120.915386,48
United States of America,California,Stanislaus,Waterford,37.645132,-120.767609,50.73380661
United States of America,California,Stanislaus,Waterford,37.6698373,-120.6892101,
United States of America,California,Stanislaus,West Modesto,37.618399,-121.043779,20.85304451
United States of America,California,Stanislaus,Westley,37.548255,-121.201264,27.86553001
United States of America,California,Stanislaus,Westport,37.5442264,-121.0573902,
United States of America,California,Sutter,East Nicolaus,38.91002,-121.544321,14
United States of America,California,Sutter,Live Oak,39.2617865,-121.6830515,
United States of America,California,Sutter,Live Oak,39.274518,-121.662003,23.55627632
United States of America,California,Sutter,Meridian,39.140436,-121.907894,13
United States of America,California,Sutter,Meridian-Robbins,38.975616,-121.7595873,
United States of America,California,Sutter,Nicolaus,38.898091,-121.572872,13
United States of America,California,Sutter,Rio Oso,38.951756,-121.531033,17
United States of America,California,Sutter,Robbins,38.867141,-121.705555,4
United States of America,California,Sutter,South Sutter,38.854825,-121.5333668,
United States of America,California,Sutter,South Yuba City,39.112192,-121.638976,15.94718552
United States of America,California,Sutter,Sutter,39.2210289,-121.8399669,
United States of America,California,Sutter,Sutter,39.162348,-121.749607,22.66150665
United States of America,California,Sutter,Tierra Buena,39.149767,-121.671499,17.46420479
United States of America,California,Sutter,Trowbridge,38.926323,-121.514703,11
United States of America,California,Sutter,Yuba City,39.134792,-121.626201,17.45849228
United States of America,California,Sutter,Yuba City,39.1259023,-121.647714,
United States of America,California,Sutter,Yuba City Southwest,39.0342246,-121.6633133,
United States of America,California,Tehama,Bend,40.256027,-122.209539,109
United States of America,California,Tehama,Corning,39.926182,-122.180489,83.35280609
United States of America,California,Tehama,Corning,39.8881576,-122.1716824,
United States of America,California,Tehama,East Tehama,40.1943009,-121.8564922,
United States of America,California,Tehama,Flournoy,39.928355,-122.446162,223
United States of America,California,Tehama,Gerber,40.061442,-122.148238,75
United States of America,California,Tehama,Gerber-Las Flores,40.059757,-122.151299,68.70990753
United States of America,California,Tehama,Lake California,40.360834,-122.210243,119
United States of America,California,Tehama,Las Flores,40.07214,-122.157312,75
United States of America,California,Tehama,Los Molinos,40.024439,-122.099442,68.70616913
United States of America,California,Tehama,Manton,40.41902,-121.863519,671.6519165
United States of America,California,Tehama,Mineral,40.355686,-121.567333,1525.695557
United States of America,California,Tehama,Paskenta,39.883274,-122.545833,251
United States of America,California,Tehama,Paynes Creek,40.340892,-121.917409,528
United States of America,California,Tehama,Proberta,40.076157,-122.177608,76
United States of America,California,Tehama,Rancho Tehama Reserve,40.008099,-122.425912,204.774765
United States of America,California,Tehama,Red Bluff,40.17664,-122.237951,92.96105957
United States of America,California,Tehama,Red Bluff,40.2058274,-122.2663582,
United States of America,California,Tehama,Richfield,39.973886,-122.173304,82
United States of America,California,Tehama,Tehama,40.024337,-122.123783,65.35033417
United States of America,California,Tehama,Vina,39.93418,-122.051706,64
United States of America,California,Tehama,West Tehama,40.0579918,-122.6497624,
United States of America,California,Trinity,Burnt Ranch,40.811028,-123.508202,775
United States of America,California,Trinity,Coffee Creek,41.080265,-122.7136,1008
United States of America,California,Trinity,Douglas City,40.663631,-122.926055,763
United States of America,California,Trinity,Hayfork,40.535597,-123.2643313,
United States of America,California,Trinity,Hayfork,40.596893,-123.093404,913.440918
United States of America,California,Trinity,Hyampom,40.626179,-123.468834,676
United States of America,California,Trinity,Junction City,40.727408,-123.061442,868
United States of America,California,Trinity,Lewiston,40.699213,-122.810684,609.3446655
United States of America,California,Trinity,Mad River,40.432027,-123.49244,1373
United States of America,California,Trinity,Mad River,40.0696019,-123.2109469,
United States of America,California,Trinity,Northwest Trinity,40.8228066,-123.2441079,
United States of America,California,Trinity,Ruth,40.294263,-123.348274,1058
United States of America,California,Trinity,Trinity Center,40.984067,-122.708326,942
United States of America,California,Trinity,Trinity Village,40.878916,-123.513206,613
United States of America,California,Trinity,Weaverville,40.736687,-122.936208,641.3226318
United States of America,California,Trinity,Weaverville,40.9476615,-122.812341,
United States of America,California,Tulare,Allensworth,35.849878,-119.389209,67
United States of America,California,Tulare,Alpaugh,35.888674,-119.486579,64.83578491
United States of America,California,Tulare,California Hot Springs,35.886312,-118.656066,1166
United States of America,California,Tulare,Camp Nelson,36.141978,-118.610709,1727
United States of America,California,Tulare,Cedar Slope,36.14356,-118.577133,2062
United States of America,California,Tulare,Cutler,36.524791,-119.288991,110.2335281
United States of America,California,Tulare,Delft Colony,36.51188,-119.446495,97
United States of America,California,Tulare,Dinuba,36.4967436,-119.4364314,
United States of America,California,Tulare,Dinuba,36.544898,-119.38926,101.5495834
United States of America,California,Tulare,Ducor,35.892176,-119.048079,166.3936462
United States of America,California,Tulare,Earlimart,35.882551,-119.269866,86.77364349
United States of America,California,Tulare,Earlimart,35.8580543,-119.3058575,
United States of America,California,Tulare,East Orosi,36.547572,-119.261243,120.0014267
United States of America,California,Tulare,East Porterville,36.056101,-118.983836,147.0080719
United States of America,California,Tulare,East Tulare Villa,36.20356,-119.282169,93
United States of America,California,Tulare,El Rancho,36.220589,-119.068859,132
United States of America,California,Tulare,Exeter,36.3078419,-119.1463911,
United States of America,California,Tulare,Exeter,36.294213,-119.142746,118.2298126
United States of America,California,Tulare,Farmersville,36.301169,-119.207603,109.6349258
United States of America,California,Tulare,Goshen,36.347447,-119.420015,86.78164673
United States of America,California,Tulare,Hartland,36.651815,-118.955295,1501
United States of America,California,Tulare,Idlewild,35.809587,-118.670462,1265
United States of America,California,Tulare,Ivanhoe,36.4202175,-119.2108517,
United States of America,California,Tulare,Ivanhoe,36.387879,-119.219081,110.8219986
United States of America,California,Tulare,Kennedy Meadows,36.007639,-118.109948,2119
United States of America,California,Tulare,Lemon Cove,36.3793065,-119.0273225,157.9364471
United States of America,California,Tulare,Lindcove,36.359514,-119.072082,143
United States of America,California,Tulare,Lindsay,36.207172,-119.08881,116.8239975
United States of America,California,Tulare,Lindsay,36.2050632,-119.1253532,
United States of America,California,Tulare,Linnell Camp,36.308887,-119.222583,112
United States of America,California,Tulare,London,36.475995,-119.442332,91.10968781
United States of America,California,Tulare,Matheny,36.170663,-119.351579,83
United States of America,California,Tulare,McClenney Tract,35.821984,-118.647838,1556
United States of America,California,Tulare,Monson,36.492737,-119.335744,102
United States of America,California,Tulare,Orosi,36.542448,-119.288808,113.4386597
United States of America,California,Tulare,Orosi,36.543414,-119.290272,122
United States of America,California,Tulare,Orosi-Cutler,36.5668963,-119.258357,
United States of America,California,Tulare,Panorama Heights,35.806767,-118.627052,1636
United States of America,California,Tulare,Patterson Tract,36.379518,-119.295602,105
United States of America,California,Tulare,Pierpoint,36.140467,-118.629615,1566
United States of America,California,Tulare,Pine Flat,35.873624,-118.642526,1339
United States of America,California,Tulare,Pixley,35.9647863,-119.2918483,
United States of America,California,Tulare,Pixley,35.970405,-119.290729,83.11599731
United States of America,California,Tulare,Plainview,36.142242,-119.137433,109
United States of America,California,Tulare,Ponderosa,36.10504,-118.529346,2227
United States of America,California,Tulare,Poplar-Cotton Center,36.053936,-119.144796,114.8185883
United States of America,California,Tulare,Porterville,36.0557653,-119.0111508,
United States of America,California,Tulare,Porterville,36.0904645,-119.0343965,132.9927826
United States of America,California,Tulare,Posey,35.803845,-118.678918,1246
United States of America,California,Tulare,Poso Park,35.811271,-118.636537,1507
United States of America,California,Tulare,Richgrove,35.796677,-119.106654,157.8300018
United States of America,California,Tulare,Rodriguez Camp,35.808986,-119.138822,144
United States of America,California,Tulare,Sequoia Crest,36.185882,-118.625635,2329
United States of America,California,Tulare,Seville,36.485693,-119.22477,119
United States of America,California,Tulare,Silver City,36.46376,-118.65076,2309
United States of America,California,Tulare,Springville,36.128378,-118.819001,305.013092
United States of America,California,Tulare,Springville-Johnsondale,36.1727771,-118.4920872,
United States of America,California,Tulare,Strathmore,36.1328505,-119.1119527,
United States of America,California,Tulare,Strathmore,36.144891,-119.059506,121.6166611
United States of America,California,Tulare,Sugarloaf Mountain Park,35.837962,-118.603961,1830
United States of America,California,Tulare,Sugarloaf Saw Mill,35.834299,-118.616541,1787
United States of America,California,Tulare,Sugarloaf Village,35.826851,-118.635447,1618
United States of America,California,Tulare,Sultana,36.546343,-119.336041,116
United States of America,California,Tulare,Terra Bella,35.961292,-119.040914,149.5702057
United States of America,California,Tulare,Terra Bella,35.8807557,-118.9866017,
United States of America,California,Tulare,Teviston,35.928943,-119.278306,85
United States of America,California,Tulare,Three Rivers,36.454212,-118.886466,308.9610596
United States of America,California,Tulare,Tipton,36.059115,-119.310409,83.73160553
United States of America,California,Tulare,Tipton,36.056592,-119.3368879,
United States of America,California,Tulare,Tonyville,36.247382,-119.090352,115
United States of America,California,Tulare,Tooleville,36.287753,-119.115435,132
United States of America,California,Tulare,Traver,36.4543,-119.484182,87.6870575
United States of America,California,Tulare,Tulare,36.1816095,-119.3879509,
United States of America,California,Tulare,Tulare,36.206601,-119.342404,88.30465698
United States of America,California,Tulare,Visalia,36.3182735,-119.275368,103.2390442
United States of America,California,Tulare,Visalia,36.3583459,-119.3467968,
United States of America,California,Tulare,Waukena,36.136112,-119.510977,69
United States of America,California,Tulare,West Goshen,36.349026,-119.451603,87
United States of America,California,Tulare,Wilsonia,36.734597,-118.955846,2076
United States of America,California,Tulare,Woodlake,36.416435,-119.099544,136.1480103
United States of America,California,Tulare,Woodlake-Three Rivers,36.5233963,-118.8366159,
United States of America,California,Tulare,Woodville,36.091847,-119.200116,103.5408478
United States of America,California,Tulare,Yettem,36.486532,-119.254884,109
United States of America,California,Tuolumne,Cedar Ridge,38.066108,-120.273743,775
United States of America,California,Tuolumne,Chinese Camp,37.870294,-120.433526,386.1532593
United States of America,California,Tuolumne,Cold Springs,38.161335,-120.053526,1511
United States of America,California,Tuolumne,Columbia,38.033881,-120.401172,646.076355
United States of America,California,Tuolumne,East Sonora,37.980561,-120.347961,655.7077026
United States of America,California,Tuolumne,East Sonora-Phoenix Lake,37.9510288,-120.3234213,
United States of America,California,Tuolumne,Groveland,37.832535,-120.239375,774
United States of America,California,Tuolumne,Groveland,37.7849935,-120.3128015,
United States of America,California,Tuolumne,Groveland-Big Oak Flat,37.845867,-120.207697,865.6881714
United States of America,California,Tuolumne,Jamestown,37.954956,-120.405306,533.7265015
United States of America,California,Tuolumne,Long Barn,38.095685,-120.128542,1475
United States of America,California,Tuolumne,Mi-Wuk Village,38.061053,-120.187524,1383.365845
United States of America,California,Tuolumne,Mono Vista,38.014995,-120.260203,995.9766846
United States of America,California,Tuolumne,Phoenix Lake,38.007428,-120.308978,953
United States of America,California,Tuolumne,Phoenix Lake-Cedar Ridge,38.0378475,-120.293998,1025.313354
United States of America,California,Tuolumne,Pine Mountain Lake,37.859873,-120.184357,501
United States of America,California,Tuolumne,Sierra Village,38.076759,-120.162347,1383
United States of America,California,Tuolumne,Sonora,37.8906641,-120.4653288,
United States of America,California,Tuolumne,Sonora,37.9798105,-120.373447,634.5943604
United States of America,California,Tuolumne,Soulsbyville,37.98936,-120.2684095,929.1407471
United States of America,California,Tuolumne,Strawberry,38.198662,-120.010524,1867
United States of America,California,Tuolumne,Tuolumne City,37.961785,-120.236851,793.4342651
United States of America,California,Tuolumne,Tuttletown,38.000343,-120.45029,594
United States of America,California,Tuolumne,Twain Harte,38.04039,-120.233671,1119.756592
United States of America,California,Tuolumne,Twain Harte-Tuolumne City,38.0406457,-119.8372726,
United States of America,California,Ventura,Bell Canyon,34.208075,-118.687628,577
United States of America,California,Ventura,Camarillo,34.2254695,-119.010901,57.03839874
United States of America,California,Ventura,Camarillo,34.1936795,-119.05808,
United States of America,California,Ventura,Casa Conejo,34.186238,-118.944701,200.2021637
United States of America,California,Ventura,Channel Islands Beach,34.157654,-119.222639,2.373001814
United States of America,California,Ventura,El Rio,34.247236,-119.15556,31.35972404
United States of America,California,Ventura,Fillmore,34.401276,-118.917749,143.2431641
United States of America,California,Ventura,Fillmore,34.4100421,-118.8479312,
United States of America,California,Ventura,Lake Sherwood,34.133682,-118.880459,527
United States of America,California,Ventura,Las Posas,34.2976284,-119.0146271,
United States of America,California,Ventura,Los Padres,34.6431476,-119.1348137,
United States of America,California,Ventura,Meiners Oaks,34.449684,-119.275274,229.4043732
United States of America,California,Ventura,Mira Monte,34.427463,-119.290725,193.6647491
United States of America,California,Ventura,Moorpark,34.281056,-118.873561,161.0879211
United States of America,California,Ventura,Moorpark,34.3109742,-118.849552,
United States of America,California,Ventura,Oak Park,34.171756,-118.757899,309.9751282
United States of America,California,Ventura,Oak View,34.397416,-119.300127,159.8463287
United States of America,California,Ventura,Ojai,34.449079,-119.246654,231.9581299
United States of America,California,Ventura,Ojai-Mira Monte,34.4466133,-119.2162794,
United States of America,California,Ventura,Oxnard,34.213237,-119.1929055,17.72800064
United States of America,California,Ventura,Oxnard,34.1294922,-119.1247661,
United States of America,California,Ventura,Piru,34.407297,-118.799675,199.4019165
United States of America,California,Ventura,Port Hueneme,34.16025,-119.194509,6.528000355
United States of America,California,Ventura,San Buenaventura (Ventura),34.3210435,-119.2690225,281.3233032
United States of America,California,Ventura,Santa Paula,34.355792,-119.068425,87.15981293
United States of America,California,Ventura,Santa Paula,34.3612388,-119.0849079,
United States of America,California,Ventura,Santa Rosa Valley,34.24543,-118.902374,276
United States of America,California,Ventura,Santa Susana,34.257953,-118.666362,568
United States of America,California,Ventura,Saticoy,34.281953,-119.145252,54
United States of America,California,Ventura,Simi Valley,34.25438533,-118.7794793,268.9225159
United States of America,California,Ventura,Simi Valley,34.2793569,-118.727432,
United States of America,California,Ventura,Thousand Oaks,34.1899165,-118.8911838,220.2657928
United States of America,California,Ventura,Thousand Oaks,34.2016201,-118.8612226,
United States of America,California,Ventura,Triunfo Pass-Point Mugu,34.0889308,-118.977551,
United States of America,California,Ventura,Ventura,34.318544,-119.3076926,
United States of America,California,Yolo,Clarksburg,38.3998198,-121.5963802,
United States of America,California,Yolo,Clarksburg,38.419333,-121.541619,2
United States of America,California,Yolo,Davis,38.5560747,-121.7013233,
United States of America,California,Yolo,Davis,38.553856,-121.738095,14.52676392
United States of America,California,Yolo,Dunnigan,38.89266,-121.974193,52
United States of America,California,Yolo,East Yolo,38.6279507,-121.5932868,
United States of America,California,Yolo,Esparto,38.692938,-122.018981,58.8030014
United States of America,California,Yolo,Esparto,38.8344702,-122.1271651,
United States of America,California,Yolo,Guinda,38.827456,-122.198493,123
United States of America,California,Yolo,Knights Landing,38.8196108,-121.8369566,
United States of America,California,Yolo,Knights Landing,38.797956,-121.717625,7
United States of America,California,Yolo,Madison,38.674992,-121.970245,45
United States of America,California,Yolo,Monument Hills,38.664137,-121.875572,36
United States of America,California,Yolo,University of California Davis,38.537398,-121.757594,17
United States of America,California,Yolo,West Sacramento,38.5580745,-121.5628655,5.347055912
United States of America,California,Yolo,Winters,38.5786038,-122.0245787,
United States of America,California,Yolo,Winters,38.526034,-121.975099,41.38810349
United States of America,California,Yolo,Woodland,38.674054,-121.772498,20.32091141
United States of America,California,Yolo,Woodland,38.6664485,-121.7536523,
United States of America,California,Yolo,Yolo,38.740511,-121.809313,16
United States of America,California,Yuba,Beale AFB,39.106035,-121.341484,62.28342056
United States of America,California,Yuba,Camptonville,39.452198,-121.048863,818
United States of America,California,Yuba,Challenge-Brownsville,39.472574,-121.265028,683.6436157
United States of America,California,Yuba,Dobbins,39.365673,-121.212762,922
United States of America,California,Yuba,East Yuba-Beale AFB,39.1409236,-121.4010089,
United States of America,California,Yuba,Linda,39.125181,-121.563006,19.75573921
United States of America,California,Yuba,Linda,39.1095214,-121.5697439,
United States of America,California,Yuba,Loma Rica,39.314149,-121.402497,150.3311615
United States of America,California,Yuba,Marysville,39.14573275,-121.5856545,20.02848625
United States of America,California,Yuba,Marysville,39.1533839,-121.5881739,
United States of America,California,Yuba,Marysville Northeast,39.2661888,-121.4453728,
United States of America,California,Yuba,Olivehurst,39.086345,-121.547769,18.98122406
United States of America,California,Yuba,Olivehurst,39.0213584,-121.553183,
United States of America,California,Yuba,Plumas Lake,38.99234,-121.55796,13
United States of America,California,Yuba,Smartsville,39.205271,-121.292915,168
United States of America,California,Yuba,Wheatland,39.012409,-121.425225,25.73695374
United States of America,California,Yuba,Wheatland,39.0409023,-121.4340275,
United States of America,California,Yuba,Yuba Foothills,39.4524525,-121.1797405,
